{"type":"FeatureCollection","features":[{"type":"Feature","properties":{"SCHOOL":"BOONE","TYPE":"HS","ADDR":"1000 E Kaley St, Orlando 32806","WEB":"https://boonehs.ocps.net","PHONE":"407.893.7200","SLNG":-81.36808,"SLAT":28.5177},"geometry":{"type":"Polygon","coordinates":[[[-81.31781,28.53985],[-81.31057,28.5395],[-81.3101,28.48062],[-81.33283,28.4805],[-81.33284,28.48418],[-81.33613,28.48416],[-81.33614,28.48468],[-81.33659,28.48529],[-81.33627,28.48538],[-81.33609,28.48595],[-81.33623,28.4874],[-81.33915,28.48958],[-81.33868,28.49073],[-81.33886,28.49152],[-81.33791,28.49223],[-81.33791,28.49288],[-81.33851,28.49316],[-81.33909,28.49432],[-81.33937,28.49446],[-81.33955,28.49428],[-81.33955,28.49451],[-81.34001,28.49446],[-81.34001,28.49431],[-81.34032,28.49438],[-81.34063,28.49504],[-81.34219,28.49526],[-81.3432,28.4949],[-81.34336,28.49508],[-81.34447,28.49483],[-81.34523,28.49487],[-81.34553,28.49432],[-81.34615,28.49416],[-81.34662,28.49437],[-81.34645,28.49457],[-81.34656,28.49555],[-81.34594,28.49643],[-81.34666,28.49673],[-81.34809,28.49626],[-81.34843,28.49512],[-81.34864,28.49495],[-81.34833,28.49495],[-81.3484,28.49461],[-81.35035,28.49434],[-81.35146,28.49351],[-81.35174,28.49267],[-81.35266,28.49217],[-81.35277,28.49193],[-81.35403,28.49177],[-81.35538,28.4926],[-81.35774,28.49272],[-81.35805,28.49215],[-81.35828,28.49065],[-81.35891,28.49002],[-81.35961,28.48961],[-81.36076,28.48945],[-81.36075,28.48925],[-81.36214,28.48901],[-81.36346,28.48751],[-81.36372,28.48686],[-81.36479,28.48622],[-81.36555,28.48613],[-81.36561,28.48566],[-81.3675,28.48616],[-81.37245,28.48623],[-81.37397,28.4924],[-81.37492,28.49461],[-81.37515,28.49588],[-81.37597,28.49837],[-81.37705,28.49833],[-81.37789,28.50172],[-81.37888,28.50171],[-81.3792,28.503],[-81.38007,28.50315],[-81.38071,28.50272],[-81.38247,28.50376],[-81.38451,28.50374],[-81.38453,28.50557],[-81.38865,28.50553],[-81.38868,28.50827],[-81.39074,28.50825],[-81.3908,28.51418],[-81.38859,28.51574],[-81.38777,28.5159],[-81.38658,28.51708],[-81.38664,28.51823],[-81.38621,28.52032],[-81.38617,28.52989],[-81.38569,28.53133],[-81.38316,28.53524],[-81.3796,28.53543],[-81.37368,28.53708],[-81.36446,28.53725],[-81.35877,28.5382],[-81.3301,28.53835],[-81.32029,28.53982],[-81.31781,28.53985]]]}},{"type":"Feature","properties":{"SCHOOL":"EDGEWATER","TYPE":"HS","ADDR":"3100 Edgewater Dr, Orlando 32804","WEB":"https://edgewaterhs.ocps.net","PHONE":"407.835.4900","SLNG":-81.39375,"SLAT":28.57907},"geometry":{"type":"Polygon","coordinates":[[[-81.36166,28.64042],[-81.36164,28.63933],[-81.35719,28.63935],[-81.36241,28.63281],[-81.36312,28.63163],[-81.36351,28.63004],[-81.36356,28.6239],[-81.36394,28.62277],[-81.36511,28.62068],[-81.36549,28.61937],[-81.36513,28.60496],[-81.36491,28.58439],[-81.36277,28.58572],[-81.36132,28.58727],[-81.36122,28.58631],[-81.36091,28.58631],[-81.36091,28.58569],[-81.3613,28.5857],[-81.3613,28.5852],[-81.36091,28.58519],[-81.36109,28.5845],[-81.36089,28.58449],[-81.36086,28.58219],[-81.35664,28.58225],[-81.35663,28.58165],[-81.36003,28.57961],[-81.36078,28.57894],[-81.36125,28.57809],[-81.36088,28.57807],[-81.36084,28.577],[-81.3605,28.57695],[-81.36013,28.5757],[-81.35955,28.57575],[-81.35954,28.57541],[-81.35923,28.57547],[-81.35896,28.57509],[-81.35842,28.57509],[-81.35848,28.57393],[-81.35877,28.57301],[-81.35903,28.57291],[-81.35883,28.57246],[-81.35753,28.57292],[-81.35661,28.57283],[-81.35571,28.57243],[-81.35552,28.57193],[-81.35567,28.57121],[-81.35652,28.57064],[-81.35692,28.5701],[-81.35955,28.57006],[-81.35947,28.5657],[-81.35626,28.56575],[-81.35626,28.56526],[-81.35575,28.56526],[-81.35574,28.56452],[-81.35625,28.56451],[-81.35622,28.56079],[-81.35594,28.5608],[-81.35594,28.56045],[-81.35216,28.5605],[-81.35204,28.5532],[-81.34472,28.55331],[-81.34474,28.55128],[-81.34552,28.54958],[-81.34568,28.546],[-81.34371,28.54602],[-81.34359,28.53837],[-81.3585,28.53822],[-81.36446,28.53725],[-81.37333,28.53711],[-81.3752,28.53678],[-81.37975,28.5354],[-81.38316,28.53524],[-81.38228,28.53718],[-81.38191,28.53856],[-81.38221,28.53896],[-81.38263,28.5502],[-81.38238,28.55309],[-81.41384,28.55281],[-81.41396,28.55654],[-81.41561,28.5617],[-81.41563,28.56315],[-81.41482,28.56656],[-81.41622,28.5739],[-81.41668,28.58542],[-81.42361,28.58539],[-81.42362,28.58621],[-81.42476,28.58621],[-81.42479,28.58902],[-81.44119,28.58909],[-81.4412,28.59273],[-81.44325,28.59274],[-81.44324,28.59627],[-81.44122,28.59637],[-81.44145,28.60745],[-81.45166,28.60755],[-81.45178,28.61132],[-81.45015,28.61142],[-81.44284,28.61279],[-81.43242,28.61274],[-81.4261,28.61442],[-81.42525,28.61509],[-81.42075,28.61384],[-81.41925,28.61323],[-81.41906,28.61363],[-81.41908,28.61668],[-81.41866,28.61762],[-81.41806,28.61812],[-81.41736,28.61838],[-81.41494,28.61841],[-81.41504,28.63529],[-81.41526,28.64006],[-81.36166,28.64042]]]}},{"type":"Feature","properties":{"SCHOOL":"OCOEE","TYPE":"HS","ADDR":"1925 Ocoee Crown Point Pkwy, Ocoee 34761","WEB":"https://ocoeehs.ocps.net","PHONE":"407.905.3000","SLNG":-81.55788,"SLAT":28.60229},"geometry":{"type":"Polygon","coordinates":[[[-81.5433,28.63633],[-81.53744,28.6271],[-81.53652,28.62448],[-81.53622,28.62171],[-81.5216,28.62189],[-81.5216,28.62003],[-81.52117,28.62003],[-81.52018,28.61812],[-81.51756,28.6181],[-81.51751,28.60839],[-81.51657,28.60892],[-81.51557,28.60668],[-81.51559,28.59935],[-81.49685,28.59945],[-81.49682,28.58757],[-81.49654,28.58621],[-81.49682,28.58549],[-81.49682,28.5776],[-81.48323,28.57761],[-81.48025,28.57746],[-81.47607,28.5776],[-81.4759,28.55209],[-81.5587,28.55143],[-81.55966,28.55624],[-81.55974,28.55926],[-81.55922,28.5621],[-81.55706,28.56799],[-81.55684,28.56963],[-81.5569,28.57194],[-81.56274,28.57182],[-81.56696,28.57036],[-81.56698,28.57319],[-81.57423,28.57318],[-81.57725,28.57299],[-81.57948,28.57506],[-81.58063,28.57708],[-81.58085,28.57756],[-81.57966,28.57807],[-81.57998,28.57863],[-81.58308,28.57977],[-81.58355,28.57978],[-81.58311,28.58033],[-81.58261,28.58028],[-81.58225,28.58068],[-81.58145,28.58065],[-81.58159,28.58082],[-81.58136,28.58119],[-81.58087,28.58125],[-81.58029,28.58336],[-81.57995,28.5835],[-81.57951,28.5845],[-81.57988,28.58465],[-81.57966,28.58493],[-81.57987,28.58544],[-81.57954,28.58552],[-81.57996,28.58553],[-81.58035,28.58579],[-81.58023,28.58611],[-81.5797,28.58599],[-81.57999,28.5861],[-81.57976,28.58758],[-81.58035,28.59091],[-81.57988,28.59237],[-81.57969,28.59376],[-81.57903,28.59416],[-81.57829,28.59498],[-81.57794,28.59628],[-81.57826,28.59676],[-81.57917,28.59688],[-81.57959,28.59774],[-81.57957,28.59819],[-81.57985,28.59847],[-81.57889,28.59905],[-81.57744,28.59947],[-81.57675,28.59919],[-81.57656,28.59881],[-81.57626,28.59871],[-81.57588,28.59773],[-81.57558,28.59777],[-81.57538,28.59747],[-81.57441,28.59737],[-81.57336,28.59808],[-81.57273,28.59801],[-81.57301,28.59834],[-81.57248,28.59833],[-81.57259,28.59848],[-81.57237,28.59879],[-81.57157,28.59895],[-81.57153,28.59907],[-81.57198,28.59906],[-81.57192,28.59932],[-81.57112,28.60021],[-81.57075,28.60034],[-81.57074,28.60053],[-81.56979,28.60134],[-81.56986,28.60145],[-81.56933,28.6017],[-81.56848,28.6027],[-81.56795,28.6029],[-81.56703,28.60367],[-81.5651,28.60461],[-81.56461,28.6053],[-81.56388,28.60582],[-81.56474,28.60579],[-81.56013,28.60989],[-81.5599,28.61253],[-81.55915,28.61334],[-81.5592,28.61786],[-81.55421,28.61789],[-81.55079,28.62083],[-81.54969,28.62473],[-81.55015,28.62477],[-81.5497,28.62484],[-81.55018,28.62513],[-81.54999,28.62541],[-81.55001,28.62633],[-81.54984,28.62669],[-81.55117,28.63302],[-81.55143,28.63312],[-81.55125,28.63342],[-81.55148,28.63451],[-81.55212,28.63545],[-81.55221,28.6359],[-81.55256,28.63605],[-81.55245,28.63629],[-81.5433,28.63633]]]}},{"type":"Feature","properties":{"SCHOOL":"COLONIAL","TYPE":"HS","ADDR":"6100 Oleander Dr, Orlando 32807","WEB":"https://colinialhs.ocps.net","PHONE":"407.482.6300","SLNG":-81.30192,"SLAT":28.5523},"geometry":{"type":"Polygon","coordinates":[[[-81.2861,28.56832],[-81.26618,28.56838],[-81.26828,28.55982],[-81.26824,28.55829],[-81.26771,28.55682],[-81.26692,28.55573],[-81.25367,28.54329],[-81.25247,28.5417],[-81.2515,28.5397],[-81.251,28.53703],[-81.25075,28.51904],[-81.25054,28.51688],[-81.24963,28.51381],[-81.24454,28.5028],[-81.24385,28.50094],[-81.24333,28.49814],[-81.24325,28.49307],[-81.24249,28.48956],[-81.23137,28.4896],[-81.23085,28.48822],[-81.23174,28.48822],[-81.23175,28.48457],[-81.22948,28.48458],[-81.22876,28.48317],[-81.2276,28.48198],[-81.22764,28.47365],[-81.23846,28.47359],[-81.23801,28.47185],[-81.23707,28.46943],[-81.23132,28.45834],[-81.23057,28.45527],[-81.23046,28.45142],[-81.24672,28.45128],[-81.24977,28.4508],[-81.25729,28.44874],[-81.25977,28.44855],[-81.2644,28.44855],[-81.27989,28.47188],[-81.28163,28.47378],[-81.28878,28.47989],[-81.28992,28.48045],[-81.29126,28.48071],[-81.3101,28.48062],[-81.31057,28.5395],[-81.31959,28.53985],[-81.32314,28.53951],[-81.32974,28.53836],[-81.34359,28.53837],[-81.34371,28.54602],[-81.34568,28.546],[-81.34552,28.54958],[-81.34474,28.55128],[-81.34472,28.55331],[-81.32393,28.55337],[-81.31891,28.55401],[-81.31574,28.55488],[-81.31229,28.55638],[-81.30954,28.55805],[-81.30293,28.56285],[-81.30101,28.56403],[-81.29768,28.56571],[-81.2941,28.56699],[-81.29029,28.56785],[-81.2861,28.56832]]]}},{"type":"Feature","properties":{"SCHOOL":"EVANS","TYPE":"HS","ADDR":"4949 Silver Star Rd, Orlando 32808","WEB":"https://evanshs.ocps.net","PHONE":"407.522.3400","SLNG":-81.44941,"SLAT":28.58079},"geometry":{"type":"Polygon","coordinates":[[[-81.48427,28.61404],[-81.47577,28.61366],[-81.47051,28.6124],[-81.46796,28.61102],[-81.46683,28.6107],[-81.45178,28.61132],[-81.45166,28.60755],[-81.44145,28.60745],[-81.44122,28.59637],[-81.44324,28.59627],[-81.44325,28.59274],[-81.4412,28.59273],[-81.44119,28.58909],[-81.42479,28.58902],[-81.42476,28.58621],[-81.42362,28.58621],[-81.42361,28.58539],[-81.41668,28.58542],[-81.41622,28.5739],[-81.41494,28.5672],[-81.43058,28.56705],[-81.4305,28.55982],[-81.44288,28.55974],[-81.44277,28.55251],[-81.4759,28.55209],[-81.47607,28.5776],[-81.48025,28.57746],[-81.48323,28.57761],[-81.49682,28.5776],[-81.49682,28.58549],[-81.49654,28.58621],[-81.49682,28.58757],[-81.49685,28.6047],[-81.49628,28.60613],[-81.49683,28.60731],[-81.49694,28.61018],[-81.49804,28.6116],[-81.49836,28.61249],[-81.49192,28.6124],[-81.48995,28.61346],[-81.48427,28.61404]]]}},{"type":"Feature","properties":{"SCHOOL":"OAK RIDGE","TYPE":"HS","ADDR":"700 W Oak Ridge Rd, Orlando 32809","WEB":"https://oakridgehs.ocps.net","PHONE":"407.852.3200","SLNG":-81.38599,"SLAT":28.47005},"geometry":{"type":"Polygon","coordinates":[[[-81.43843,28.52698],[-81.43206,28.52689],[-81.43205,28.52652],[-81.4305,28.52653],[-81.4305,28.52684],[-81.43033,28.52683],[-81.43033,28.52653],[-81.43014,28.52653],[-81.43015,28.52683],[-81.42996,28.52683],[-81.42996,28.52653],[-81.42609,28.52656],[-81.42595,28.50794],[-81.42626,28.50717],[-81.42996,28.50224],[-81.42995,28.50143],[-81.4252,28.50148],[-81.42674,28.49971],[-81.42553,28.49972],[-81.42552,28.49777],[-81.42663,28.49776],[-81.4268,28.49399],[-81.42593,28.49418],[-81.41743,28.49426],[-81.41745,28.4979],[-81.41446,28.49793],[-81.4145,28.50158],[-81.41346,28.50159],[-81.41349,28.50434],[-81.41142,28.50436],[-81.41142,28.50527],[-81.40935,28.50529],[-81.40935,28.50438],[-81.40814,28.50439],[-81.40724,28.50348],[-81.4053,28.50351],[-81.40529,28.50251],[-81.40097,28.50265],[-81.40097,28.50219],[-81.39767,28.50224],[-81.39767,28.50206],[-81.39704,28.50207],[-81.39704,28.50269],[-81.39688,28.50269],[-81.39696,28.5101],[-81.39426,28.51168],[-81.3908,28.51418],[-81.39074,28.50825],[-81.38868,28.50827],[-81.38865,28.50553],[-81.38453,28.50557],[-81.38451,28.50374],[-81.38247,28.50376],[-81.38071,28.50272],[-81.38007,28.50315],[-81.3792,28.503],[-81.37888,28.50171],[-81.37789,28.50172],[-81.37705,28.49833],[-81.37597,28.49837],[-81.37515,28.49588],[-81.37492,28.49461],[-81.37397,28.4924],[-81.37245,28.48623],[-81.3675,28.48616],[-81.36561,28.48566],[-81.36555,28.48613],[-81.36479,28.48622],[-81.36372,28.48686],[-81.36346,28.48751],[-81.36214,28.48901],[-81.36075,28.48925],[-81.36076,28.48945],[-81.35961,28.48961],[-81.35891,28.49002],[-81.35828,28.49065],[-81.35805,28.49215],[-81.35774,28.49272],[-81.35538,28.4926],[-81.35403,28.49177],[-81.35277,28.49193],[-81.35266,28.49217],[-81.35174,28.49267],[-81.35146,28.49351],[-81.35035,28.49434],[-81.3484,28.49461],[-81.34833,28.49495],[-81.34864,28.49495],[-81.34843,28.49512],[-81.34809,28.49626],[-81.34666,28.49673],[-81.34594,28.49643],[-81.34656,28.49555],[-81.34645,28.49457],[-81.34662,28.49437],[-81.34615,28.49416],[-81.34553,28.49432],[-81.34523,28.49487],[-81.34447,28.49483],[-81.34336,28.49508],[-81.3432,28.4949],[-81.34219,28.49526],[-81.34063,28.49504],[-81.34032,28.49438],[-81.34001,28.49431],[-81.34001,28.49446],[-81.33955,28.49451],[-81.33955,28.49428],[-81.33937,28.49446],[-81.33909,28.49432],[-81.33851,28.49316],[-81.33791,28.49288],[-81.33791,28.49223],[-81.33886,28.49152],[-81.33868,28.49073],[-81.33915,28.48958],[-81.33623,28.4874],[-81.33609,28.48595],[-81.33627,28.48538],[-81.33659,28.48529],[-81.33614,28.48468],[-81.33613,28.48416],[-81.33284,28.48418],[-81.33283,28.4805],[-81.3101,28.48062],[-81.31003,28.45879],[-81.31018,28.45678],[-81.30996,28.4548],[-81.30881,28.45003],[-81.30872,28.44865],[-81.30917,28.44639],[-81.31172,28.44098],[-81.3116,28.43991],[-81.31068,28.43821],[-81.31078,28.43768],[-81.31035,28.43634],[-81.3113,28.43295],[-81.3113,28.42978],[-81.31107,28.42879],[-81.31022,28.42687],[-81.30968,28.42651],[-81.30786,28.426],[-81.30708,28.4251],[-81.30652,28.4207],[-81.30494,28.41744],[-81.30416,28.41501],[-81.30398,28.41069],[-81.30415,28.40989],[-81.30458,28.40917],[-81.30664,28.40785],[-81.30731,28.40695],[-81.30747,28.40628],[-81.30759,28.40199],[-81.30912,28.3971],[-81.31004,28.39705],[-81.31013,28.39657],[-81.31016,28.39068],[-81.30997,28.38966],[-81.30902,28.3872],[-81.30877,28.38567],[-81.30931,28.3788],[-81.30947,28.38191],[-81.30985,28.38281],[-81.31036,28.38342],[-81.32308,28.39249],[-81.32849,28.39578],[-81.33152,28.39675],[-81.33252,28.39744],[-81.33313,28.3985],[-81.33366,28.40171],[-81.33557,28.40502],[-81.34298,28.41191],[-81.34572,28.4142],[-81.35056,28.42071],[-81.35097,28.42169],[-81.35111,28.42272],[-81.35111,28.43058],[-81.35073,28.43159],[-81.34903,28.43416],[-81.3488,28.43523],[-81.34873,28.43802],[-81.34711,28.44139],[-81.34695,28.44211],[-81.3471,28.443],[-81.34745,28.44359],[-81.34937,28.44524],[-81.3498,28.44594],[-81.34991,28.44694],[-81.34933,28.44878],[-81.3496,28.44959],[-81.35009,28.45009],[-81.35182,28.45084],[-81.3531,28.4511],[-81.38908,28.45082],[-81.39637,28.45062],[-81.40088,28.45025],[-81.40896,28.45046],[-81.40899,28.45629],[-81.40118,28.45639],[-81.39969,28.46166],[-81.40164,28.462],[-81.40239,28.46248],[-81.40162,28.4632],[-81.40079,28.46481],[-81.40081,28.47254],[-81.39979,28.47255],[-81.39981,28.47577],[-81.40026,28.47579],[-81.40027,28.47611],[-81.40087,28.47611],[-81.40085,28.47525],[-81.40504,28.47519],[-81.40505,28.47608],[-81.40706,28.47605],[-81.40704,28.47428],[-81.40808,28.47426],[-81.40807,28.47258],[-81.40839,28.47257],[-81.40839,28.47326],[-81.40861,28.47326],[-81.4086,28.47304],[-81.40901,28.47303],[-81.40901,28.47257],[-81.40921,28.47256],[-81.40921,28.47425],[-81.41327,28.47422],[-81.41326,28.47364],[-81.41612,28.47362],[-81.41632,28.47253],[-81.41747,28.47256],[-81.41754,28.47966],[-81.42568,28.47957],[-81.42572,28.48679],[-81.4274,28.48685],[-81.42854,28.48749],[-81.42901,28.48823],[-81.42978,28.49079],[-81.43071,28.4918],[-81.43872,28.49647],[-81.44044,28.49701],[-81.44253,28.49719],[-81.44266,28.50649],[-81.44245,28.50667],[-81.44248,28.51041],[-81.44208,28.51042],[-81.44212,28.51592],[-81.44195,28.51592],[-81.44197,28.52337],[-81.44231,28.52338],[-81.44232,28.52368],[-81.43847,28.52364],[-81.43843,28.52698]]]}},{"type":"Feature","properties":{"SCHOOL":"DR PHILLIPS","TYPE":"HS","ADDR":"6500 Turkey Lake Rd, Orlando 32819","WEB":"https://drphillipshs.ocps.net","PHONE":"407.355.3200","SLNG":-81.47801,"SLAT":28.47119},"geometry":{"type":"Polygon","coordinates":[[[-81.4743,28.439],[-81.48003,28.43896],[-81.48004,28.43668],[-81.48318,28.43668],[-81.48318,28.43531],[-81.49759,28.43527],[-81.49765,28.44075],[-81.50047,28.44074],[-81.50049,28.44339],[-81.50253,28.44192],[-81.50267,28.44125],[-81.50319,28.44087],[-81.5038,28.44095],[-81.50405,28.43978],[-81.50403,28.43809],[-81.50582,28.43817],[-81.50584,28.44043],[-81.50759,28.4408],[-81.50877,28.44132],[-81.51021,28.44266],[-81.51204,28.44266],[-81.51355,28.44336],[-81.51351,28.44446],[-81.51421,28.44497],[-81.51645,28.44497],[-81.51606,28.44328],[-81.5164,28.44257],[-81.51953,28.43982],[-81.52095,28.43928],[-81.52282,28.43889],[-81.52314,28.43844],[-81.52347,28.43877],[-81.5251,28.43866],[-81.52669,28.43898],[-81.52592,28.43953],[-81.52887,28.44273],[-81.53105,28.44119],[-81.53113,28.44154],[-81.53092,28.44176],[-81.53113,28.44223],[-81.5309,28.44327],[-81.53132,28.44404],[-81.53136,28.44482],[-81.53174,28.44563],[-81.5329,28.44659],[-81.53284,28.4472],[-81.53316,28.44768],[-81.53428,28.44841],[-81.53567,28.4499],[-81.5333,28.45411],[-81.53252,28.45419],[-81.5315,28.45377],[-81.53108,28.45378],[-81.52856,28.45453],[-81.52666,28.4546],[-81.52576,28.45491],[-81.52538,28.45536],[-81.52639,28.45888],[-81.52686,28.4593],[-81.52756,28.46048],[-81.52757,28.46111],[-81.52799,28.46153],[-81.52908,28.46162],[-81.52741,28.4646],[-81.52749,28.46613],[-81.52603,28.46866],[-81.52564,28.46898],[-81.524,28.46944],[-81.52302,28.46946],[-81.52242,28.46921],[-81.52213,28.46937],[-81.52181,28.46929],[-81.52219,28.47129],[-81.52318,28.47287],[-81.52308,28.47358],[-81.5237,28.47389],[-81.5249,28.4741],[-81.52559,28.47461],[-81.52538,28.47523],[-81.52554,28.47556],[-81.52552,28.4765],[-81.52501,28.47749],[-81.52542,28.47833],[-81.52548,28.47894],[-81.51679,28.47902],[-81.512,28.48278],[-81.51155,28.48267],[-81.51109,28.48382],[-81.51016,28.48312],[-81.50953,28.48371],[-81.50856,28.4838],[-81.50845,28.47905],[-81.49987,28.47913],[-81.49992,28.48095],[-81.49581,28.481],[-81.49588,28.48466],[-81.4949,28.48467],[-81.49188,28.48656],[-81.48759,28.48653],[-81.48764,28.48933],[-81.48655,28.48998],[-81.48646,28.48952],[-81.48612,28.48958],[-81.48615,28.48923],[-81.48555,28.48924],[-81.48556,28.48957],[-81.48496,28.48958],[-81.48499,28.48912],[-81.48437,28.48912],[-81.48435,28.48749],[-81.48342,28.4875],[-81.48347,28.49371],[-81.46686,28.49366],[-81.45895,28.49392],[-81.45927,28.52799],[-81.45823,28.52798],[-81.45706,28.52769],[-81.43843,28.52786],[-81.43847,28.52364],[-81.44232,28.52368],[-81.44231,28.52338],[-81.44197,28.52337],[-81.44195,28.51592],[-81.44212,28.51592],[-81.44208,28.51042],[-81.44248,28.51041],[-81.44245,28.50667],[-81.44266,28.50649],[-81.44253,28.49719],[-81.44044,28.49701],[-81.43872,28.49647],[-81.43071,28.4918],[-81.42978,28.49079],[-81.42901,28.48823],[-81.42854,28.48749],[-81.4274,28.48685],[-81.42572,28.48679],[-81.42568,28.47957],[-81.43239,28.4795],[-81.43089,28.47358],[-81.4291,28.47039],[-81.42919,28.46943],[-81.42976,28.46858],[-81.43014,28.46877],[-81.43089,28.46749],[-81.43099,28.4649],[-81.44216,28.46478],[-81.44201,28.45],[-81.4503,28.44987],[-81.4519,28.45003],[-81.46444,28.44997],[-81.46566,28.4501],[-81.47436,28.44998],[-81.4743,28.439]]]}},{"type":"Feature","properties":{"SCHOOL":"UNIVERSITY","TYPE":"HS","ADDR":"2450 Cougar Way, Orlando 32817","WEB":"https://universityhs.ocps.net","PHONE":"407.482.8700","SLNG":-81.21706,"SLAT":28.57774},"geometry":{"type":"Polygon","coordinates":[[[-81.18985,28.58346],[-81.18871,28.58346],[-81.18871,28.58141],[-81.18824,28.58141],[-81.18807,28.58105],[-81.18745,28.58085],[-81.18729,28.58058],[-81.18779,28.58058],[-81.18774,28.57257],[-81.18971,28.57262],[-81.18965,28.56891],[-81.19038,28.56895],[-81.19036,28.56533],[-81.19542,28.56548],[-81.20767,28.56687],[-81.20724,28.56355],[-81.20696,28.55603],[-81.20639,28.55457],[-81.20401,28.55066],[-81.20383,28.54965],[-81.20381,28.54575],[-81.20398,28.54458],[-81.20452,28.54349],[-81.2075,28.53951],[-81.20786,28.53822],[-81.20781,28.53685],[-81.20503,28.528],[-81.20383,28.5263],[-81.20242,28.52535],[-81.20082,28.52484],[-81.1945,28.52465],[-81.19447,28.51452],[-81.18636,28.51459],[-81.18561,28.51318],[-81.18456,28.51211],[-81.18321,28.51136],[-81.18173,28.51097],[-81.17117,28.51094],[-81.16956,28.51069],[-81.16787,28.50987],[-81.16019,28.5042],[-81.16122,28.50318],[-81.1611,28.4517],[-81.23046,28.45142],[-81.23057,28.45527],[-81.23132,28.45834],[-81.23707,28.46943],[-81.23801,28.47185],[-81.23846,28.47359],[-81.22764,28.47365],[-81.2276,28.48198],[-81.22876,28.48317],[-81.22948,28.48458],[-81.23175,28.48457],[-81.23174,28.48822],[-81.23085,28.48822],[-81.23137,28.4896],[-81.24249,28.48956],[-81.24325,28.49307],[-81.24333,28.49814],[-81.24385,28.50094],[-81.24454,28.5028],[-81.24963,28.51381],[-81.25054,28.51688],[-81.25075,28.51904],[-81.251,28.53703],[-81.25138,28.53931],[-81.25229,28.5414],[-81.25367,28.54329],[-81.26692,28.55573],[-81.26785,28.5571],[-81.26828,28.55851],[-81.26826,28.55993],[-81.26618,28.56838],[-81.25398,28.56837],[-81.25071,28.56865],[-81.25073,28.57143],[-81.25104,28.57201],[-81.25101,28.57351],[-81.2507,28.57478],[-81.25005,28.57557],[-81.24912,28.57556],[-81.24913,28.57658],[-81.24638,28.57799],[-81.24501,28.57827],[-81.24514,28.58953],[-81.24467,28.59621],[-81.24478,28.60047],[-81.2444,28.60157],[-81.24311,28.60322],[-81.24287,28.60419],[-81.24324,28.60725],[-81.24466,28.60972],[-81.2447,28.61162],[-81.18692,28.61204],[-81.18666,28.59075],[-81.18904,28.59073],[-81.18903,28.58899],[-81.18945,28.58899],[-81.18945,28.58822],[-81.19227,28.58821],[-81.19223,28.58684],[-81.19193,28.5859],[-81.19135,28.58509],[-81.18986,28.58377],[-81.18985,28.58346]]]}},{"type":"Feature","properties":{"SCHOOL":"WINTER PARK","TYPE":"HS","ADDR":"2100 Summerfield Rd, Winter Park 32792","WEB":"https://winterparkhs.ocps.net","PHONE":"407.622.3200","SLNG":-81.32025,"SLAT":28.58598},"geometry":{"type":"Polygon","coordinates":[[[-81.32848,28.63963],[-81.32787,28.61051],[-81.24889,28.6116],[-81.2489,28.61227],[-81.24807,28.61172],[-81.24663,28.61186],[-81.24623,28.61206],[-81.24621,28.6119],[-81.24481,28.61189],[-81.24462,28.60958],[-81.24351,28.60785],[-81.24314,28.60693],[-81.24287,28.60419],[-81.24311,28.60322],[-81.2444,28.60157],[-81.24478,28.60047],[-81.24467,28.59621],[-81.24514,28.58953],[-81.24501,28.57827],[-81.24638,28.57799],[-81.24913,28.57658],[-81.24912,28.57556],[-81.25005,28.57557],[-81.2507,28.57478],[-81.25101,28.57351],[-81.25104,28.57201],[-81.25073,28.57143],[-81.25071,28.56865],[-81.25549,28.56835],[-81.28368,28.56837],[-81.28708,28.56825],[-81.28977,28.56793],[-81.2941,28.56699],[-81.29897,28.56511],[-81.30293,28.56285],[-81.30907,28.55838],[-81.3117,28.5567],[-81.31488,28.5552],[-81.31857,28.55408],[-81.32393,28.55337],[-81.33652,28.55345],[-81.35204,28.5532],[-81.35216,28.5605],[-81.35594,28.56045],[-81.35594,28.5608],[-81.35622,28.56079],[-81.35625,28.56451],[-81.35574,28.56452],[-81.35575,28.56526],[-81.35626,28.56526],[-81.35626,28.56575],[-81.35947,28.5657],[-81.35955,28.57006],[-81.35692,28.5701],[-81.35652,28.57064],[-81.35567,28.57121],[-81.35552,28.57193],[-81.35571,28.57243],[-81.35661,28.57283],[-81.35753,28.57292],[-81.35883,28.57246],[-81.35903,28.57291],[-81.35877,28.57301],[-81.35848,28.57393],[-81.35842,28.57509],[-81.35896,28.57509],[-81.35923,28.57547],[-81.35954,28.57541],[-81.35955,28.57575],[-81.36013,28.5757],[-81.3605,28.57695],[-81.36084,28.577],[-81.36088,28.57807],[-81.36125,28.57809],[-81.36078,28.57894],[-81.36003,28.57961],[-81.35663,28.58165],[-81.35664,28.58225],[-81.36086,28.58219],[-81.36089,28.58449],[-81.36109,28.5845],[-81.36091,28.58519],[-81.3613,28.5852],[-81.3613,28.5857],[-81.36091,28.58569],[-81.36091,28.58631],[-81.36122,28.58631],[-81.36132,28.58727],[-81.36277,28.58572],[-81.36491,28.58439],[-81.36513,28.60496],[-81.36552,28.61903],[-81.36521,28.62043],[-81.36394,28.62277],[-81.36356,28.6239],[-81.36351,28.63004],[-81.36312,28.63163],[-81.36241,28.63281],[-81.35719,28.63935],[-81.32848,28.63963]]]}},{"type":"Feature","properties":{"SCHOOL":"HORIZON","TYPE":"HS","ADDR":"10393 Seidel Rd, Winter Garden 34787","WEB":"https://horizonhs.ocps.net","PHONE":"407.554.1814","SLNG":-81.626,"SLAT":28.41603},"geometry":{"type":"Polygon","coordinates":[[[-81.6241,28.48174],[-81.62407,28.47811],[-81.62355,28.47811],[-81.62354,28.47629],[-81.62095,28.47632],[-81.62095,28.47678],[-81.61733,28.47681],[-81.61734,28.47727],[-81.61373,28.47731],[-81.61373,28.47776],[-81.61141,28.47776],[-81.60208,28.4723],[-81.59985,28.47663],[-81.59934,28.47595],[-81.59719,28.47596],[-81.59714,28.46931],[-81.59095,28.46935],[-81.59094,28.46753],[-81.58508,28.46756],[-81.58608,28.46692],[-81.59242,28.46404],[-81.59488,28.46188],[-81.5953,28.46126],[-81.59626,28.45766],[-81.59607,28.45534],[-81.59612,28.44988],[-81.59592,28.44947],[-81.59514,28.4492],[-81.59495,28.44893],[-81.59482,28.44297],[-81.59435,28.44242],[-81.582,28.43476],[-81.57665,28.42986],[-81.57878,28.42871],[-81.5792,28.4278],[-81.57918,28.42385],[-81.57852,28.42366],[-81.57604,28.42105],[-81.57579,28.4205],[-81.57581,28.4201],[-81.57667,28.41814],[-81.57688,28.41551],[-81.5756,28.41171],[-81.57552,28.41098],[-81.57659,28.40785],[-81.57667,28.4064],[-81.57365,28.39888],[-81.57163,28.39502],[-81.57093,28.39466],[-81.5679,28.3945],[-81.56408,28.39152],[-81.56314,28.39117],[-81.56156,28.39105],[-81.56037,28.39131],[-81.55806,28.39272],[-81.55333,28.39423],[-81.55163,28.39464],[-81.54985,28.39461],[-81.54758,28.39385],[-81.54311,28.39097],[-81.54172,28.39067],[-81.54149,28.38922],[-81.54028,28.38751],[-81.53992,28.38668],[-81.53984,28.38576],[-81.5401,28.38371],[-81.53888,28.38108],[-81.53875,28.37879],[-81.53796,28.37742],[-81.53704,28.3744],[-81.53542,28.37093],[-81.53508,28.36964],[-81.53482,28.36963],[-81.53568,28.36768],[-81.53547,28.36667],[-81.53437,28.36538],[-81.53316,28.36469],[-81.52049,28.35982],[-81.53172,28.34729],[-81.62367,28.34704],[-81.65709,28.34675],[-81.65756,28.47418],[-81.64057,28.47433],[-81.64061,28.48162],[-81.6241,28.48174]]]}},{"type":"Feature","properties":{"SCHOOL":"APOPKA","TYPE":"HS","ADDR":"555 W Martin St, Apopka 32712","WEB":"https://apopkahs.ocps.net","PHONE":"407.905.5500","SLNG":-81.5243,"SLAT":28.6923},"geometry":{"type":"Polygon","coordinates":[[[-81.6465,28.7859],[-81.47739,28.78619],[-81.46946,28.78578],[-81.46138,28.78567],[-81.41453,28.78557],[-81.41437,28.78498],[-81.41514,28.78449],[-81.41533,28.78301],[-81.41558,28.78249],[-81.41546,28.78074],[-81.41514,28.78026],[-81.41535,28.77859],[-81.41493,28.77797],[-81.41469,28.77681],[-81.41492,28.77618],[-81.4149,28.77464],[-81.41586,28.77363],[-81.4158,28.77313],[-81.41555,28.77288],[-81.41582,28.7719],[-81.41573,28.77126],[-81.4164,28.76965],[-81.41615,28.76751],[-81.41564,28.76651],[-81.41584,28.76449],[-81.41531,28.76393],[-81.41521,28.76353],[-81.41554,28.76232],[-81.41567,28.75976],[-81.41632,28.75848],[-81.41627,28.75792],[-81.41659,28.7566],[-81.41647,28.75545],[-81.41673,28.75505],[-81.41728,28.75489],[-81.41749,28.75262],[-81.41792,28.75173],[-81.41845,28.74887],[-81.41891,28.74827],[-81.41908,28.74563],[-81.4197,28.74461],[-81.42006,28.74246],[-81.42096,28.74075],[-81.42189,28.73974],[-81.42214,28.73913],[-81.42217,28.73822],[-81.42277,28.73692],[-81.42393,28.73513],[-81.42682,28.7325],[-81.42788,28.7309],[-81.42996,28.72886],[-81.43028,28.72755],[-81.42992,28.72688],[-81.43013,28.72662],[-81.43036,28.72666],[-81.43124,28.7256],[-81.4317,28.72564],[-81.43405,28.72293],[-81.43654,28.72125],[-81.43685,28.72048],[-81.43772,28.71956],[-81.43774,28.71887],[-81.43864,28.71717],[-81.44023,28.71625],[-81.44178,28.7149],[-81.44328,28.71454],[-81.44428,28.7139],[-81.44562,28.71362],[-81.44648,28.71374],[-81.44705,28.71468],[-81.44782,28.7153],[-81.44879,28.71531],[-81.45068,28.71433],[-81.45288,28.7144],[-81.45396,28.71423],[-81.45497,28.71442],[-81.45594,28.71423],[-81.45811,28.71423],[-81.45955,28.71302],[-81.45954,28.7094],[-81.467,28.70952],[-81.46747,28.70935],[-81.46773,28.70886],[-81.46783,28.70207],[-81.46841,28.69974],[-81.46813,28.69839],[-81.47622,28.69847],[-81.47628,28.69484],[-81.4773,28.69484],[-81.47731,28.69401],[-81.47629,28.69401],[-81.4763,28.69358],[-81.47705,28.69357],[-81.47706,28.69275],[-81.47631,28.69275],[-81.47632,28.6922],[-81.47707,28.6922],[-81.47708,28.69121],[-81.47831,28.6912],[-81.47835,28.68752],[-81.48457,28.68751],[-81.48456,28.68877],[-81.48798,28.68876],[-81.48778,28.68979],[-81.48789,28.69002],[-81.48811,28.69002],[-81.48811,28.69024],[-81.48716,28.69025],[-81.48715,28.6907],[-81.48453,28.69071],[-81.4845,28.69299],[-81.48849,28.69297],[-81.48847,28.69471],[-81.48984,28.69471],[-81.49003,28.69297],[-81.49889,28.69299],[-81.49889,28.69119],[-81.49874,28.69119],[-81.49752,28.68899],[-81.49753,28.68844],[-81.49567,28.68843],[-81.49686,28.68753],[-81.49456,28.68752],[-81.49459,28.68388],[-81.48867,28.68386],[-81.48872,28.67302],[-81.49271,28.673],[-81.49272,28.67218],[-81.49078,28.67218],[-81.49079,28.67126],[-81.49164,28.67126],[-81.49163,28.6718],[-81.49224,28.67167],[-81.4921,28.67167],[-81.49211,28.67126],[-81.49273,28.67126],[-81.49275,28.66942],[-81.49275,28.66851],[-81.49156,28.66851],[-81.49155,28.66802],[-81.4908,28.66802],[-81.49078,28.66394],[-81.48874,28.66393],[-81.48872,28.66209],[-81.49269,28.66211],[-81.4927,28.65944],[-81.49125,28.65845],[-81.49346,28.65841],[-81.49346,28.65751],[-81.4948,28.65751],[-81.49488,28.65547],[-81.49363,28.65547],[-81.49364,28.65478],[-81.51165,28.65481],[-81.51756,28.65463],[-81.5176,28.65649],[-81.52165,28.65653],[-81.52162,28.65468],[-81.52578,28.65466],[-81.5258,28.6621],[-81.53405,28.66203],[-81.53401,28.66575],[-81.53816,28.66569],[-81.53808,28.66937],[-81.54013,28.66933],[-81.54014,28.67113],[-81.54219,28.67109],[-81.54218,28.67027],[-81.5442,28.67028],[-81.5442,28.67127],[-81.54473,28.67127],[-81.54473,28.67168],[-81.54616,28.67168],[-81.54618,28.67291],[-81.54646,28.67291],[-81.54646,28.67226],[-81.55026,28.67229],[-81.5497,28.67298],[-81.54821,28.67362],[-81.54762,28.67422],[-81.54743,28.675],[-81.54781,28.67651],[-81.54634,28.67651],[-81.54632,28.67998],[-81.54621,28.6813],[-81.54586,28.68199],[-81.54587,28.68243],[-81.54608,28.68281],[-81.54644,28.68266],[-81.54743,28.68357],[-81.54861,28.68402],[-81.54891,28.68393],[-81.54949,28.68316],[-81.55037,28.68341],[-81.55037,28.68363],[-81.55455,28.68372],[-81.60894,28.68348],[-81.60911,28.68343],[-81.60919,28.67831],[-81.61424,28.67911],[-81.61921,28.67935],[-81.62214,28.67861],[-81.62431,28.67846],[-81.62423,28.67833],[-81.62293,28.67844],[-81.62283,28.67827],[-81.6246,28.67767],[-81.62487,28.67725],[-81.62564,28.67685],[-81.62899,28.67769],[-81.62982,28.6774],[-81.63094,28.67754],[-81.6319,28.67739],[-81.63266,28.67774],[-81.63269,28.67736],[-81.63294,28.67719],[-81.63358,28.67707],[-81.63382,28.67736],[-81.6339,28.67705],[-81.63425,28.67706],[-81.6349,28.67736],[-81.63533,28.67715],[-81.63576,28.67748],[-81.63634,28.67743],[-81.63673,28.67795],[-81.63705,28.67755],[-81.63741,28.6778],[-81.63822,28.67784],[-81.639,28.67823],[-81.63898,28.67868],[-81.63926,28.67859],[-81.63957,28.67894],[-81.64012,28.67901],[-81.64016,28.67924],[-81.64028,28.67917],[-81.64013,28.67889],[-81.6396,28.67858],[-81.63956,28.67833],[-81.64052,28.67837],[-81.64121,28.6787],[-81.64145,28.67853],[-81.64195,28.67874],[-81.64214,28.67909],[-81.64246,28.67895],[-81.64354,28.6792],[-81.64346,28.67954],[-81.64365,28.67971],[-81.64349,28.67989],[-81.64231,28.67979],[-81.64314,28.68027],[-81.64379,28.68017],[-81.64421,28.67965],[-81.64425,28.68043],[-81.64444,28.6805],[-81.6445,28.67997],[-81.64478,28.67996],[-81.64481,28.67939],[-81.64505,28.67929],[-81.64527,28.67965],[-81.64579,28.67991],[-81.64569,28.68023],[-81.64542,28.68033],[-81.6457,28.68031],[-81.64565,28.68056],[-81.64596,28.6805],[-81.64579,28.68083],[-81.64645,28.68056],[-81.64665,28.68073],[-81.64659,28.68031],[-81.64714,28.68038],[-81.64728,28.68059],[-81.64752,28.68046],[-81.64775,28.68135],[-81.64788,28.68131],[-81.6478,28.68087],[-81.64856,28.68049],[-81.64893,28.68063],[-81.64916,28.68039],[-81.65037,28.68049],[-81.6504,28.68117],[-81.6507,28.68102],[-81.65055,28.68081],[-81.65069,28.68061],[-81.65104,28.68055],[-81.65186,28.68094],[-81.65181,28.68139],[-81.65223,28.68143],[-81.65219,28.68166],[-81.65253,28.68162],[-81.65262,28.68204],[-81.65315,28.68194],[-81.65354,28.6824],[-81.65383,28.68235],[-81.65358,28.6822],[-81.65384,28.68199],[-81.65399,28.68226],[-81.65451,28.6823],[-81.6552,28.68268],[-81.65829,28.68282],[-81.65836,28.68326],[-81.65852,28.68281],[-81.6586,28.76644],[-81.6569,28.76937],[-81.65637,28.76984],[-81.65597,28.769],[-81.65398,28.76757],[-81.65419,28.76723],[-81.65413,28.7668],[-81.65374,28.76632],[-81.65268,28.76604],[-81.65159,28.76621],[-81.65119,28.76594],[-81.65102,28.76627],[-81.64896,28.76695],[-81.64651,28.76986],[-81.64518,28.77265],[-81.64474,28.77599],[-81.64591,28.78157],[-81.64697,28.78325],[-81.64777,28.78401],[-81.64766,28.78461],[-81.64699,28.78505],[-81.6465,28.7859]]]}},{"type":"Feature","properties":{"SCHOOL":"WEKIVA","TYPE":"HS","ADDR":"2501 N Hiawassee Rd, Apopka 32703","WEB":"https://wekivahs.ocps.net","PHONE":"407.297.4900","SLNG":-81.47334,"SLAT":28.63816},"geometry":{"type":"Polygon","coordinates":[[[-81.467,28.70952],[-81.45954,28.7094],[-81.45972,28.6402],[-81.41526,28.64006],[-81.41504,28.63529],[-81.41494,28.61841],[-81.41736,28.61838],[-81.41806,28.61812],[-81.41866,28.61762],[-81.41908,28.61668],[-81.41906,28.61363],[-81.41925,28.61323],[-81.42075,28.61384],[-81.42525,28.61509],[-81.4261,28.61442],[-81.4326,28.61272],[-81.4427,28.6128],[-81.4505,28.61137],[-81.46645,28.61068],[-81.46796,28.61102],[-81.4706,28.61243],[-81.47677,28.61379],[-81.48034,28.61376],[-81.48427,28.61404],[-81.48995,28.61346],[-81.49192,28.6124],[-81.49836,28.61249],[-81.49804,28.6116],[-81.49694,28.61018],[-81.49683,28.60731],[-81.49628,28.60617],[-81.49684,28.60484],[-81.49685,28.59945],[-81.51559,28.59935],[-81.51557,28.60668],[-81.51657,28.60892],[-81.51751,28.60839],[-81.51756,28.6181],[-81.52018,28.61812],[-81.52117,28.62003],[-81.5216,28.62003],[-81.5216,28.62189],[-81.53622,28.62171],[-81.53652,28.62448],[-81.53744,28.6271],[-81.5433,28.63633],[-81.55264,28.63624],[-81.55289,28.63676],[-81.55326,28.63677],[-81.55404,28.63749],[-81.55371,28.63768],[-81.55416,28.63762],[-81.55457,28.63812],[-81.55562,28.63843],[-81.55628,28.63882],[-81.55656,28.63929],[-81.55892,28.63993],[-81.56058,28.64171],[-81.56381,28.64313],[-81.56625,28.64352],[-81.56852,28.64344],[-81.5701,28.64397],[-81.57032,28.64389],[-81.57066,28.64437],[-81.57102,28.6455],[-81.57386,28.64742],[-81.57995,28.65051],[-81.58742,28.65293],[-81.59131,28.65618],[-81.59238,28.65733],[-81.59259,28.66229],[-81.59367,28.66725],[-81.59395,28.66808],[-81.59565,28.67111],[-81.59796,28.67339],[-81.60211,28.67624],[-81.60716,28.67793],[-81.60919,28.67831],[-81.60911,28.68343],[-81.60894,28.68348],[-81.55455,28.68372],[-81.55037,28.68363],[-81.55037,28.68341],[-81.54949,28.68316],[-81.54891,28.68393],[-81.54861,28.68402],[-81.54743,28.68357],[-81.54644,28.68266],[-81.54608,28.68281],[-81.54587,28.68243],[-81.54586,28.68199],[-81.54621,28.6813],[-81.54632,28.67998],[-81.54634,28.67651],[-81.54781,28.67651],[-81.54743,28.675],[-81.54762,28.67422],[-81.54821,28.67362],[-81.5497,28.67298],[-81.55026,28.67229],[-81.54646,28.67226],[-81.54646,28.67291],[-81.54618,28.67291],[-81.54616,28.67168],[-81.54473,28.67168],[-81.54473,28.67127],[-81.5442,28.67127],[-81.5442,28.67028],[-81.54218,28.67027],[-81.54219,28.67109],[-81.54014,28.67113],[-81.54013,28.66933],[-81.53808,28.66937],[-81.53816,28.66569],[-81.53401,28.66575],[-81.53405,28.66203],[-81.5258,28.6621],[-81.52578,28.65466],[-81.52162,28.65468],[-81.52165,28.65653],[-81.5176,28.65649],[-81.51756,28.65463],[-81.51165,28.65481],[-81.49364,28.65478],[-81.49363,28.65547],[-81.49488,28.65547],[-81.4948,28.65751],[-81.49346,28.65751],[-81.49346,28.65841],[-81.49125,28.65845],[-81.4927,28.65944],[-81.49269,28.66211],[-81.48872,28.66209],[-81.48874,28.66393],[-81.49078,28.66394],[-81.4908,28.66802],[-81.49155,28.66802],[-81.49156,28.66851],[-81.49275,28.66851],[-81.49275,28.66942],[-81.49273,28.67126],[-81.49211,28.67126],[-81.4921,28.67167],[-81.49224,28.67167],[-81.49196,28.6718],[-81.49163,28.6718],[-81.49164,28.67126],[-81.49079,28.67126],[-81.49078,28.67218],[-81.49272,28.67218],[-81.49271,28.673],[-81.48872,28.67302],[-81.48867,28.68386],[-81.49459,28.68388],[-81.49456,28.68752],[-81.49686,28.68753],[-81.49567,28.68843],[-81.49753,28.68844],[-81.49752,28.68899],[-81.49874,28.69119],[-81.49889,28.69119],[-81.49889,28.69299],[-81.49003,28.69297],[-81.48984,28.69471],[-81.48847,28.69471],[-81.48849,28.69297],[-81.4845,28.69299],[-81.48453,28.69071],[-81.48715,28.6907],[-81.48716,28.69025],[-81.48811,28.69024],[-81.48811,28.69002],[-81.48789,28.69002],[-81.48778,28.68979],[-81.48798,28.68876],[-81.48456,28.68877],[-81.48457,28.68751],[-81.47835,28.68752],[-81.47831,28.6912],[-81.47708,28.69121],[-81.47707,28.6922],[-81.47632,28.6922],[-81.47631,28.69275],[-81.47706,28.69275],[-81.47705,28.69357],[-81.4763,28.69358],[-81.47629,28.69401],[-81.47731,28.69401],[-81.4773,28.69484],[-81.47628,28.69484],[-81.47622,28.69847],[-81.46813,28.69839],[-81.46841,28.6997],[-81.46783,28.70207],[-81.46763,28.70919],[-81.467,28.70952]]]}},{"type":"Feature","properties":{"SCHOOL":"TIMBER CREEK","TYPE":"HS","ADDR":"1001 S Avalon Park Blvd, Orlando 32828","WEB":"https://timbercreekhs.ocps.net","PHONE":"321.235.7800","SLNG":-81.14525,"SLAT":28.52791},"geometry":{"type":"Polygon","coordinates":[[[-81.18645,28.55451],[-81.17535,28.5543],[-81.17533,28.55178],[-81.16976,28.55171],[-81.16976,28.55078],[-81.16537,28.55072],[-81.16542,28.55101],[-81.1645,28.551],[-81.1645,28.55115],[-81.16413,28.5512],[-81.16407,28.55179],[-81.16228,28.55178],[-81.16229,28.55263],[-81.16195,28.55257],[-81.16195,28.55284],[-81.16179,28.55284],[-81.16179,28.55259],[-81.16143,28.55259],[-81.16144,28.55341],[-81.15742,28.55349],[-81.15741,28.55017],[-81.15848,28.55015],[-81.15847,28.54877],[-81.15733,28.54878],[-81.15732,28.5447],[-81.1577,28.54411],[-81.1544,28.54285],[-81.15246,28.54145],[-81.15251,28.54328],[-81.15118,28.54329],[-81.15123,28.54703],[-81.14524,28.54709],[-81.14481,28.53981],[-81.13668,28.53981],[-81.13656,28.52513],[-81.13056,28.52515],[-81.13067,28.52275],[-81.13431,28.51773],[-81.13805,28.51425],[-81.13898,28.50702],[-81.13648,28.50325],[-81.13522,28.49737],[-81.13412,28.49659],[-81.1431,28.49658],[-81.14311,28.49727],[-81.15833,28.49723],[-81.15836,28.5017],[-81.15901,28.50318],[-81.16873,28.51037],[-81.16989,28.51077],[-81.17117,28.51094],[-81.18186,28.51098],[-81.18333,28.51141],[-81.18467,28.5122],[-81.1857,28.5133],[-81.18636,28.51459],[-81.19447,28.51452],[-81.1945,28.52465],[-81.20097,28.52487],[-81.20257,28.52542],[-81.20402,28.52648],[-81.20503,28.528],[-81.20764,28.53619],[-81.20789,28.53738],[-81.20782,28.53849],[-81.20717,28.54011],[-81.20488,28.54295],[-81.20401,28.5445],[-81.20381,28.54575],[-81.20387,28.54999],[-81.19363,28.5522],[-81.19207,28.55289],[-81.19112,28.55376],[-81.19075,28.55446],[-81.19061,28.55552],[-81.19109,28.55969],[-81.19084,28.56168],[-81.18648,28.56164],[-81.18645,28.55451]]]}},{"type":"Feature","properties":{"SCHOOL":"OLYMPIA","TYPE":"HS","ADDR":"4301 S Apopka Vineland Rd, Orlando 32835","WEB":"https://olympiahs.ocps.net","PHONE":"407.905.6400","SLNG":-81.50637,"SLAT":28.49864},"geometry":{"type":"Polygon","coordinates":[[[-81.56142,28.49931],[-81.56126,28.49913],[-81.5592,28.49925],[-81.55935,28.49958],[-81.55906,28.49929],[-81.56099,28.50411],[-81.55988,28.50417],[-81.55821,28.5047],[-81.55821,28.50619],[-81.55193,28.50619],[-81.55196,28.51157],[-81.54286,28.51148],[-81.54152,28.51801],[-81.54178,28.52983],[-81.5335,28.52987],[-81.53368,28.53753],[-81.53467,28.53827],[-81.53461,28.5391],[-81.53491,28.53953],[-81.53419,28.53967],[-81.53586,28.54188],[-81.53805,28.54384],[-81.53937,28.54471],[-81.54208,28.54589],[-81.5421,28.55163],[-81.46783,28.55212],[-81.45656,28.55237],[-81.45674,28.55032],[-81.45832,28.54505],[-81.45818,28.53639],[-81.45927,28.53169],[-81.45895,28.49392],[-81.46686,28.49366],[-81.48347,28.49371],[-81.48342,28.4875],[-81.48435,28.48749],[-81.48437,28.48912],[-81.48499,28.48912],[-81.48496,28.48958],[-81.48556,28.48957],[-81.48555,28.48924],[-81.4862,28.48923],[-81.48612,28.48958],[-81.48646,28.48952],[-81.48655,28.48998],[-81.48764,28.48933],[-81.48759,28.48653],[-81.49188,28.48656],[-81.4949,28.48467],[-81.49588,28.48466],[-81.49581,28.481],[-81.49992,28.48095],[-81.49987,28.47913],[-81.50845,28.47905],[-81.50856,28.4838],[-81.50953,28.48371],[-81.51016,28.48312],[-81.5111,28.48383],[-81.51155,28.48267],[-81.512,28.48278],[-81.51679,28.47902],[-81.52548,28.47894],[-81.52542,28.47833],[-81.52501,28.47749],[-81.52552,28.4765],[-81.52554,28.47556],[-81.52538,28.47522],[-81.52559,28.47461],[-81.5249,28.4741],[-81.5237,28.47389],[-81.52308,28.47358],[-81.52318,28.47287],[-81.52219,28.47129],[-81.52181,28.46934],[-81.52192,28.4692],[-81.522,28.46938],[-81.5224,28.46921],[-81.52302,28.46946],[-81.52417,28.4694],[-81.52564,28.46898],[-81.52608,28.46859],[-81.52611,28.46829],[-81.52631,28.46825],[-81.52717,28.46889],[-81.52769,28.46975],[-81.5278,28.4718],[-81.5344,28.47328],[-81.53439,28.47351],[-81.53529,28.47419],[-81.53866,28.47465],[-81.53929,28.47679],[-81.54154,28.47891],[-81.54281,28.47852],[-81.54313,28.4782],[-81.54371,28.47897],[-81.54399,28.47897],[-81.54395,28.47869],[-81.54497,28.47798],[-81.54592,28.4776],[-81.54639,28.47709],[-81.54774,28.47661],[-81.54899,28.47527],[-81.54832,28.47526],[-81.54806,28.47465],[-81.54843,28.47457],[-81.54914,28.47384],[-81.54997,28.47373],[-81.55015,28.47394],[-81.55006,28.47423],[-81.55086,28.4741],[-81.55377,28.47282],[-81.55383,28.47262],[-81.55282,28.47207],[-81.55241,28.47128],[-81.55249,28.47074],[-81.55278,28.47026],[-81.55374,28.46953],[-81.55471,28.46956],[-81.55767,28.47104],[-81.55796,28.47141],[-81.55795,28.47588],[-81.55772,28.47632],[-81.55724,28.47659],[-81.55746,28.47653],[-81.55753,28.47708],[-81.55795,28.47728],[-81.55794,28.47862],[-81.5611,28.47861],[-81.56143,28.47904],[-81.56157,28.47974],[-81.5612,28.48145],[-81.56147,28.48226],[-81.56212,28.48327],[-81.56352,28.48467],[-81.5648,28.48556],[-81.5654,28.48525],[-81.56585,28.48528],[-81.56709,28.48611],[-81.56736,28.48649],[-81.56749,28.48809],[-81.56708,28.48905],[-81.56608,28.4897],[-81.56472,28.48965],[-81.56435,28.49098],[-81.56382,28.49134],[-81.56316,28.4924],[-81.5643,28.49233],[-81.56459,28.49249],[-81.566,28.49234],[-81.56557,28.49294],[-81.56584,28.49301],[-81.56635,28.49428],[-81.56673,28.49472],[-81.56701,28.49472],[-81.56793,28.49543],[-81.5686,28.49663],[-81.56962,28.49688],[-81.56964,28.49756],[-81.56884,28.49752],[-81.56795,28.49804],[-81.56697,28.49762],[-81.56662,28.49731],[-81.56661,28.49686],[-81.56384,28.49836],[-81.56275,28.49885],[-81.56207,28.49891],[-81.56142,28.49931]]]}},{"type":"Feature","properties":{"SCHOOL":"CYPRESS CREEK","TYPE":"HS","ADDR":"1101 Bear Crossing Dr, Orlando 32824","WEB":"https://cypresscreekhs.ocps.net","PHONE":"407.852.3400","SLNG":-81.3792,"SLAT":28.38126},"geometry":{"type":"Polygon","coordinates":[[[-81.30953,28.3693],[-81.3193,28.36737],[-81.32266,28.36713],[-81.32545,28.36724],[-81.32551,28.36617],[-81.32507,28.3631],[-81.32398,28.3631],[-81.32396,28.35947],[-81.32598,28.35948],[-81.32601,28.35358],[-81.32192,28.35359],[-81.32186,28.34803],[-81.40407,28.34795],[-81.40444,28.35377],[-81.40469,28.43016],[-81.40804,28.43261],[-81.41074,28.4354],[-81.42102,28.45041],[-81.40969,28.45048],[-81.40111,28.45025],[-81.39637,28.45062],[-81.38908,28.45082],[-81.3531,28.4511],[-81.35182,28.45084],[-81.35009,28.45009],[-81.3496,28.44959],[-81.34933,28.44878],[-81.34991,28.44694],[-81.3498,28.44594],[-81.34937,28.44524],[-81.34745,28.44359],[-81.3471,28.443],[-81.34695,28.44211],[-81.34711,28.44139],[-81.34873,28.43802],[-81.3488,28.43523],[-81.34903,28.43416],[-81.35073,28.43159],[-81.35111,28.43058],[-81.35112,28.42288],[-81.3507,28.42098],[-81.34596,28.41445],[-81.34288,28.41182],[-81.33557,28.40502],[-81.33367,28.40173],[-81.33313,28.3985],[-81.33246,28.39737],[-81.33152,28.39675],[-81.32849,28.39578],[-81.32308,28.39249],[-81.31008,28.38312],[-81.30952,28.38211],[-81.30932,28.38053],[-81.30953,28.3693]]]}},{"type":"Feature","properties":{"SCHOOL":"LAKE BUENA VISTA","TYPE":"HS","ADDR":"11305 Daryl Cater Pkwy, Orlando 32836","WEB":"https://lakebuenavistahs.ocps.net","PHONE":"407.315.7940","SLNG":-81.49302,"SLAT":28.40353},"geometry":{"type":"Polygon","coordinates":[[[-81.41747,28.46918],[-81.41762,28.46721],[-81.41858,28.46481],[-81.41968,28.46349],[-81.42622,28.45696],[-81.42731,28.45497],[-81.42767,28.45321],[-81.42744,28.44154],[-81.42685,28.43992],[-81.42351,28.43404],[-81.42291,28.43154],[-81.4228,28.41482],[-81.42319,28.41284],[-81.42475,28.40929],[-81.42511,28.40752],[-81.42507,28.39205],[-81.43322,28.39201],[-81.43322,28.39106],[-81.43207,28.38653],[-81.43315,28.38468],[-81.43352,28.3812],[-81.43428,28.37914],[-81.43598,28.37818],[-81.43742,28.37505],[-81.43749,28.37355],[-81.45274,28.37365],[-81.45272,28.3716],[-81.45341,28.37168],[-81.45598,28.37106],[-81.4569,28.37066],[-81.45709,28.37023],[-81.45793,28.36973],[-81.4578,28.35591],[-81.46243,28.35487],[-81.46244,28.34728],[-81.53172,28.34729],[-81.52049,28.35982],[-81.53316,28.36469],[-81.53437,28.36538],[-81.53547,28.36667],[-81.53568,28.36768],[-81.53482,28.36963],[-81.53508,28.36964],[-81.53542,28.37093],[-81.53704,28.3744],[-81.53796,28.37742],[-81.53875,28.37879],[-81.53888,28.38108],[-81.5401,28.38371],[-81.53984,28.38576],[-81.53992,28.38668],[-81.54028,28.38751],[-81.54149,28.38922],[-81.54172,28.39068],[-81.53391,28.39069],[-81.53242,28.3909],[-81.53117,28.39141],[-81.53014,28.39215],[-81.52933,28.39311],[-81.52882,28.39418],[-81.52863,28.39513],[-81.52862,28.39856],[-81.53027,28.3986],[-81.53136,28.39896],[-81.53229,28.39974],[-81.53274,28.4007],[-81.53279,28.41143],[-81.53068,28.41143],[-81.53068,28.41323],[-81.52863,28.41323],[-81.52864,28.41511],[-81.52991,28.41511],[-81.53069,28.41531],[-81.53069,28.4169],[-81.53251,28.4169],[-81.53257,28.42061],[-81.53172,28.42061],[-81.53173,28.42243],[-81.52865,28.42243],[-81.52865,28.42061],[-81.52455,28.42062],[-81.52451,28.43536],[-81.52624,28.43535],[-81.52572,28.43761],[-81.52307,28.43747],[-81.5224,28.43774],[-81.52314,28.43844],[-81.52284,28.43887],[-81.52095,28.43928],[-81.51953,28.43982],[-81.5164,28.44257],[-81.51606,28.44328],[-81.51645,28.44497],[-81.51421,28.44497],[-81.51351,28.44446],[-81.51355,28.44336],[-81.51204,28.44266],[-81.51021,28.44266],[-81.50877,28.44132],[-81.50759,28.4408],[-81.50584,28.44043],[-81.50582,28.43817],[-81.50403,28.43809],[-81.50405,28.43978],[-81.5038,28.44095],[-81.50319,28.44087],[-81.50267,28.44125],[-81.50253,28.44192],[-81.50049,28.44339],[-81.50047,28.44074],[-81.49765,28.44075],[-81.49759,28.43527],[-81.48318,28.43531],[-81.48318,28.43668],[-81.48004,28.43668],[-81.48003,28.43896],[-81.4743,28.439],[-81.47436,28.44998],[-81.46566,28.4501],[-81.46444,28.44997],[-81.4519,28.45003],[-81.4503,28.44987],[-81.44201,28.45],[-81.44216,28.46478],[-81.43099,28.4649],[-81.43102,28.4668],[-81.43083,28.46764],[-81.43014,28.46877],[-81.42976,28.46858],[-81.42919,28.46943],[-81.4291,28.47039],[-81.43089,28.47358],[-81.43239,28.4795],[-81.41754,28.47966],[-81.41747,28.46918]]]}},{"type":"Feature","properties":{"SCHOOL":"EAST RIVER","TYPE":"HS","ADDR":"650 East River Falcons Way, Orlando 32833","WEB":"https://eastriverhs.ocps.net","PHONE":"407.956.8550","SLNG":-81.1308,"SLAT":28.55701},"geometry":{"type":"Polygon","coordinates":[[[-80.98551,28.61138],[-80.98504,28.61141],[-80.98506,28.61177],[-80.98528,28.61198],[-80.98512,28.61263],[-80.98489,28.61287],[-80.98446,28.61284],[-80.98386,28.61208],[-80.98378,28.61031],[-80.98333,28.6097],[-80.98284,28.6098],[-80.98241,28.61069],[-80.98152,28.61114],[-80.98104,28.61116],[-80.9806,28.61095],[-80.98059,28.61053],[-80.98105,28.6102],[-80.9806,28.60959],[-80.97983,28.60912],[-80.97797,28.60914],[-80.97643,28.60796],[-80.97587,28.60782],[-80.97541,28.60791],[-80.97475,28.60852],[-80.97307,28.61137],[-80.9726,28.61149],[-80.97099,28.61116],[-80.97064,28.61071],[-80.97086,28.60908],[-80.97065,28.60859],[-80.96949,28.60838],[-80.96919,28.60788],[-80.96959,28.60695],[-80.96953,28.6052],[-80.96893,28.60452],[-80.96835,28.60421],[-80.96783,28.60437],[-80.96783,28.60501],[-80.9676,28.60521],[-80.96703,28.60502],[-80.96623,28.60509],[-80.96582,28.6046],[-80.9652,28.60439],[-80.96404,28.6051],[-80.96214,28.60548],[-80.9613,28.60545],[-80.96039,28.60496],[-80.96023,28.6035],[-80.95996,28.60293],[-80.95906,28.60242],[-80.95711,28.60191],[-80.95636,28.60215],[-80.95663,28.60331],[-80.95642,28.60389],[-80.95523,28.60356],[-80.9541,28.60496],[-80.95371,28.60489],[-80.95283,28.60421],[-80.95208,28.60424],[-80.95192,28.60388],[-80.95248,28.60275],[-80.95196,28.60241],[-80.95195,28.60223],[-80.95292,28.60139],[-80.95313,28.60094],[-80.95305,28.60067],[-80.95233,28.60006],[-80.95184,28.60049],[-80.95123,28.60048],[-80.95121,28.60006],[-80.95092,28.60003],[-80.95072,28.59964],[-80.94931,28.60038],[-80.94906,28.59998],[-80.94952,28.59974],[-80.94931,28.59919],[-80.94952,28.59848],[-80.94853,28.59881],[-80.94841,28.59859],[-80.94879,28.59824],[-80.94882,28.59794],[-80.94811,28.59752],[-80.94704,28.59747],[-80.94637,28.59694],[-80.94658,28.59659],[-80.94733,28.59673],[-80.94793,28.59592],[-80.94793,28.59564],[-80.94642,28.59575],[-80.94553,28.59497],[-80.94342,28.59384],[-80.94335,28.59343],[-80.94384,28.59264],[-80.94409,28.59263],[-80.94459,28.59304],[-80.94508,28.59236],[-80.94467,28.59133],[-80.94409,28.59135],[-80.94381,28.59101],[-80.94389,28.5905],[-80.94446,28.59036],[-80.94473,28.58988],[-80.94428,28.58891],[-80.94507,28.58894],[-80.9451,28.58854],[-80.94556,28.58795],[-80.94531,28.58707],[-80.94544,28.58651],[-80.94582,28.5865],[-80.94596,28.58705],[-80.94638,28.58759],[-80.9471,28.58743],[-80.94717,28.58715],[-80.94671,28.58713],[-80.94633,28.58608],[-80.94654,28.58554],[-80.94716,28.58489],[-80.94476,28.58401],[-80.94474,28.58383],[-80.94587,28.58273],[-80.94449,28.5826],[-80.94395,28.58196],[-80.94384,28.58129],[-80.94444,28.58053],[-80.94425,28.58012],[-80.94391,28.58003],[-80.94363,28.58025],[-80.9426,28.5799],[-80.94168,28.579],[-80.9415,28.57814],[-80.94044,28.5781],[-80.94027,28.57594],[-80.93969,28.57558],[-80.93933,28.57562],[-80.93906,28.57519],[-80.93928,28.57469],[-80.94019,28.57468],[-80.94034,28.57451],[-80.93989,28.5736],[-80.93934,28.57311],[-80.93935,28.57255],[-80.93829,28.57225],[-80.93824,28.57152],[-80.93746,28.57095],[-80.93633,28.57145],[-80.93588,28.57134],[-80.93575,28.57049],[-80.93441,28.56944],[-80.93443,28.56876],[-80.93396,28.56829],[-80.93407,28.56792],[-80.9337,28.56755],[-80.93281,28.56736],[-80.9331,28.56631],[-80.93187,28.56643],[-80.93215,28.56583],[-80.932,28.56461],[-80.93142,28.56457],[-80.93106,28.56392],[-80.93053,28.56407],[-80.93002,28.56312],[-80.93019,28.5627],[-80.93218,28.56183],[-80.93156,28.5599],[-80.93285,28.55943],[-80.9341,28.55939],[-80.93426,28.55922],[-80.9341,28.55879],[-80.93299,28.55831],[-80.93246,28.55733],[-80.93169,28.55707],[-80.93174,28.55592],[-80.93385,28.55503],[-80.93418,28.55437],[-80.93404,28.55357],[-80.93327,28.55287],[-80.93363,28.55199],[-80.93288,28.55196],[-80.93264,28.55159],[-80.93338,28.55064],[-80.93327,28.54953],[-80.93419,28.54746],[-80.93437,28.54536],[-80.93415,28.54483],[-80.93315,28.54417],[-80.93216,28.54301],[-80.93214,28.54236],[-80.93278,28.54134],[-80.93425,28.54048],[-80.9349,28.54057],[-80.93529,28.5414],[-80.93583,28.54177],[-80.93898,28.54203],[-80.93921,28.5418],[-80.93965,28.5407],[-80.93897,28.53946],[-80.93906,28.53734],[-80.93952,28.53577],[-80.93931,28.53502],[-80.93868,28.53473],[-80.9378,28.53469],[-80.93722,28.53643],[-80.9368,28.53674],[-80.93626,28.53678],[-80.93581,28.53661],[-80.93558,28.5363],[-80.93544,28.53452],[-80.93525,28.53411],[-80.93467,28.5336],[-80.93407,28.53341],[-80.93366,28.53336],[-80.93287,28.53383],[-80.93256,28.53516],[-80.93222,28.53548],[-80.93157,28.53521],[-80.92907,28.53312],[-80.92857,28.5329],[-80.92727,28.53279],[-80.92483,28.53321],[-80.92338,28.53273],[-80.92108,28.52882],[-80.92106,28.52646],[-80.92072,28.52534],[-80.91957,28.52421],[-80.91752,28.52299],[-80.91641,28.52277],[-80.91522,28.52333],[-80.91313,28.52379],[-80.91207,28.52473],[-80.91166,28.52467],[-80.9112,28.52436],[-80.91056,28.5233],[-80.911,28.52292],[-80.91252,28.52318],[-80.91248,28.52258],[-80.912,28.52163],[-80.91103,28.52127],[-80.91048,28.52184],[-80.91009,28.52191],[-80.90704,28.52037],[-80.90684,28.51997],[-80.90797,28.51799],[-80.90762,28.51783],[-80.90585,28.51798],[-80.90545,28.51658],[-80.90581,28.51558],[-80.9069,28.51489],[-80.90712,28.51454],[-80.90711,28.51379],[-80.90688,28.51346],[-80.90561,28.51277],[-80.90661,28.51208],[-80.90655,28.51155],[-80.9052,28.5111],[-80.90434,28.51039],[-80.90405,28.51049],[-80.90386,28.51098],[-80.90338,28.51111],[-80.90199,28.51046],[-80.90146,28.51045],[-80.9001,28.51156],[-80.89901,28.50991],[-80.89842,28.50971],[-80.89733,28.50979],[-80.89595,28.50942],[-80.89478,28.51022],[-80.89346,28.51185],[-80.89234,28.5121],[-80.89056,28.51196],[-80.88574,28.51032],[-80.88499,28.50923],[-80.88453,28.50719],[-80.88415,28.50679],[-80.88331,28.5043],[-80.88301,28.50402],[-80.88132,28.50398],[-80.88091,28.50353],[-80.88093,28.50272],[-80.88029,28.50156],[-80.87988,28.50001],[-80.88002,28.49848],[-80.87991,28.4976],[-80.88027,28.497],[-80.88099,28.49665],[-80.88373,28.49601],[-80.88416,28.49555],[-80.88408,28.49487],[-80.88231,28.49115],[-80.88141,28.49136],[-80.88033,28.49113],[-80.87997,28.4907],[-80.88002,28.48995],[-80.87797,28.48977],[-80.87587,28.49007],[-80.87537,28.48973],[-80.87528,28.4887],[-80.87574,28.4884],[-80.87733,28.48798],[-80.87812,28.48673],[-80.8777,28.48635],[-80.87649,28.48633],[-80.87559,28.48585],[-80.8753,28.48355],[-80.87332,28.48206],[-80.87338,28.48123],[-80.87383,28.48066],[-80.87394,28.48017],[-80.87316,28.47865],[-80.87364,28.47847],[-80.87403,28.47798],[-80.87424,28.47737],[-80.87424,28.47627],[-80.87334,28.47527],[-80.87296,28.47422],[-80.87161,28.47252],[-80.87087,28.47189],[-80.87075,28.47125],[-80.87124,28.47071],[-80.87247,28.47116],[-80.87304,28.47103],[-80.87352,28.47024],[-80.87515,28.46885],[-80.87607,28.46908],[-80.87639,28.46942],[-80.87622,28.46973],[-80.87548,28.46999],[-80.8756,28.47074],[-80.87581,28.47086],[-80.87631,28.47081],[-80.87664,28.47045],[-80.87738,28.47041],[-80.87838,28.46992],[-80.87938,28.46969],[-80.87952,28.46949],[-80.87941,28.46861],[-80.87967,28.46832],[-80.88106,28.46842],[-80.88117,28.46879],[-80.88098,28.46958],[-80.88143,28.47031],[-80.88168,28.47038],[-80.88191,28.46982],[-80.88229,28.46961],[-80.88354,28.46977],[-80.88422,28.46955],[-80.88475,28.46873],[-80.88518,28.46872],[-80.88579,28.46904],[-80.88621,28.46965],[-80.88666,28.46961],[-80.88714,28.46861],[-80.88977,28.46649],[-80.89033,28.46644],[-80.89095,28.46688],[-80.89101,28.4676],[-80.89059,28.46819],[-80.89082,28.46839],[-80.89452,28.46704],[-80.89481,28.46607],[-80.89461,28.46532],[-80.89414,28.4646],[-80.8932,28.46504],[-80.89288,28.46498],[-80.89272,28.46456],[-80.89286,28.46403],[-80.8933,28.46341],[-80.89382,28.4632],[-80.89454,28.46309],[-80.89545,28.46366],[-80.89585,28.46321],[-80.89509,28.46249],[-80.89481,28.46196],[-80.89496,28.46039],[-80.89444,28.45985],[-80.89332,28.46002],[-80.8932,28.45971],[-80.89336,28.45904],[-80.89411,28.45802],[-80.89582,28.45796],[-80.89663,28.45661],[-80.89707,28.4567],[-80.89721,28.45763],[-80.89757,28.45777],[-80.89829,28.45625],[-80.89831,28.45541],[-80.89801,28.45475],[-80.89698,28.45467],[-80.89736,28.45325],[-80.89724,28.45247],[-80.89687,28.45193],[-80.89588,28.45116],[-80.89504,28.45114],[-80.8939,28.45077],[-80.89267,28.4499],[-80.89123,28.44796],[-80.89018,28.44598],[-80.89012,28.44542],[-80.89104,28.44469],[-80.89157,28.44454],[-80.89275,28.44461],[-80.89389,28.44388],[-80.894,28.44275],[-80.89308,28.44176],[-80.89321,28.44147],[-80.89406,28.44097],[-80.89419,28.43988],[-80.89468,28.4389],[-80.89449,28.43834],[-80.89382,28.43773],[-80.89401,28.43734],[-80.89545,28.43625],[-80.89583,28.43552],[-80.89665,28.43562],[-80.89888,28.4348],[-80.89942,28.43331],[-80.90001,28.43333],[-80.90068,28.43362],[-80.90128,28.43341],[-80.90103,28.43238],[-80.90016,28.43116],[-80.89903,28.43076],[-80.89889,28.43099],[-80.89898,28.43166],[-80.89875,28.4319],[-80.89818,28.43133],[-80.89783,28.42962],[-80.89674,28.42769],[-80.8969,28.426],[-80.89771,28.42597],[-80.89869,28.42638],[-80.89891,28.42607],[-80.89818,28.4251],[-80.89741,28.42491],[-80.89668,28.42515],[-80.89631,28.42467],[-80.89647,28.42398],[-80.89707,28.42319],[-80.8968,28.42288],[-80.89634,28.42281],[-80.89574,28.42221],[-80.89551,28.42155],[-80.89571,28.42038],[-80.89553,28.41954],[-80.89389,28.41864],[-80.8926,28.41865],[-80.89227,28.41847],[-80.89189,28.41765],[-80.89167,28.41651],[-80.89109,28.41605],[-80.89001,28.41573],[-80.88842,28.41589],[-80.88799,28.41568],[-80.88787,28.41522],[-80.88839,28.41377],[-80.888,28.4128],[-80.88495,28.41084],[-80.88473,28.40999],[-80.88502,28.40921],[-80.88491,28.40886],[-80.88444,28.40856],[-80.88324,28.40831],[-80.88288,28.40783],[-80.88273,28.40685],[-80.88302,28.40622],[-80.88363,28.40602],[-80.88493,28.40632],[-80.88526,28.40536],[-80.88649,28.40424],[-80.88642,28.40383],[-80.88553,28.40262],[-80.88547,28.40225],[-80.88571,28.40095],[-80.88593,28.40049],[-80.88659,28.39998],[-80.88662,28.39963],[-80.88597,28.39889],[-80.88482,28.39846],[-80.88453,28.39813],[-80.88425,28.39686],[-80.88437,28.39604],[-80.88478,28.39564],[-80.88533,28.39557],[-80.88577,28.39583],[-80.88629,28.39659],[-80.88665,28.39663],[-80.88693,28.39628],[-80.88716,28.39409],[-80.88803,28.39327],[-80.88941,28.39322],[-80.88962,28.39301],[-80.8896,28.39232],[-80.88905,28.39066],[-80.88815,28.38925],[-80.8879,28.38847],[-80.88791,28.38755],[-80.88848,28.38604],[-80.88847,28.38548],[-80.88816,28.38523],[-80.8865,28.38504],[-80.88541,28.38445],[-80.88424,28.38327],[-80.88256,28.38209],[-80.88198,28.38061],[-80.87988,28.38056],[-80.87935,28.37748],[-80.87961,28.37704],[-80.88188,28.37545],[-80.88198,28.37522],[-80.8819,28.3748],[-80.88156,28.37459],[-80.88057,28.37529],[-80.88001,28.37511],[-80.88031,28.37354],[-80.87983,28.37262],[-80.87805,28.37208],[-80.87755,28.37224],[-80.87693,28.37307],[-80.87647,28.37336],[-80.87554,28.37341],[-80.87499,28.37324],[-80.87502,28.3723],[-80.87468,28.37156],[-80.87326,28.37032],[-80.87267,28.36929],[-80.87238,28.36811],[-80.87244,28.36721],[-80.8738,28.36422],[-80.87391,28.36158],[-80.87332,28.35998],[-80.8706,28.35572],[-80.87062,28.34759],[-80.96162,28.34764],[-81.09462,28.34822],[-81.09494,28.42058],[-81.0947,28.42801],[-81.09507,28.45167],[-81.12256,28.45141],[-81.1611,28.4517],[-81.16122,28.50318],[-81.16019,28.5042],[-81.1592,28.5034],[-81.15865,28.50262],[-81.15834,28.50148],[-81.15833,28.49723],[-81.14311,28.49727],[-81.1431,28.49658],[-81.13412,28.49659],[-81.13522,28.49737],[-81.13648,28.50325],[-81.13898,28.50702],[-81.13805,28.51425],[-81.13431,28.51773],[-81.13067,28.52275],[-81.13056,28.52515],[-81.13656,28.52513],[-81.13668,28.53981],[-81.14481,28.53981],[-81.14524,28.54709],[-81.15123,28.54703],[-81.15118,28.54329],[-81.15251,28.54328],[-81.15246,28.54145],[-81.1544,28.54285],[-81.1577,28.54411],[-81.15732,28.5447],[-81.15733,28.54878],[-81.15847,28.54877],[-81.15848,28.55015],[-81.15741,28.55017],[-81.15742,28.55349],[-81.16144,28.55341],[-81.16143,28.55259],[-81.16179,28.55259],[-81.16179,28.55284],[-81.16195,28.55284],[-81.16195,28.55257],[-81.16229,28.55263],[-81.16228,28.55178],[-81.16407,28.55179],[-81.16413,28.5512],[-81.1645,28.55115],[-81.1645,28.551],[-81.16542,28.55101],[-81.16537,28.55072],[-81.16976,28.55078],[-81.16976,28.55171],[-81.17533,28.55178],[-81.17535,28.5543],[-81.18645,28.55441],[-81.18648,28.56164],[-81.19084,28.56168],[-81.1911,28.55986],[-81.19062,28.5561],[-81.19072,28.55455],[-81.19106,28.55384],[-81.19167,28.55318],[-81.19345,28.55226],[-81.20387,28.54999],[-81.2044,28.55151],[-81.20669,28.55515],[-81.20703,28.55655],[-81.20721,28.56312],[-81.20767,28.56687],[-81.19542,28.56548],[-81.19036,28.56533],[-81.19038,28.56895],[-81.18965,28.56891],[-81.18971,28.57262],[-81.18774,28.57257],[-81.18779,28.58058],[-81.1873,28.58066],[-81.18805,28.58104],[-81.18824,28.58141],[-81.18871,28.58141],[-81.18871,28.58346],[-81.18985,28.58345],[-81.18986,28.58377],[-81.19175,28.58559],[-81.19221,28.58669],[-81.19227,28.58821],[-81.18945,28.58822],[-81.18945,28.58899],[-81.18903,28.58899],[-81.18904,28.59073],[-81.18666,28.59075],[-81.18692,28.61204],[-80.98954,28.61359],[-80.98773,28.613],[-80.98551,28.61138]]]}},{"type":"Feature","properties":{"SCHOOL":"INNOVATION","TYPE":"HS","ADDR":"12401 Dowden Rd, Orlando 32832","WEB":"https://innovationhs.ocps.net","PHONE":"407.730.4670","SLNG":-81.21501,"SLAT":28.44607},"geometry":{"type":"Polygon","coordinates":[[[-81.29097,28.48068],[-81.28974,28.48039],[-81.28866,28.4798],[-81.28076,28.47296],[-81.27899,28.47062],[-81.2644,28.44855],[-81.25977,28.44855],[-81.25729,28.44874],[-81.24977,28.4508],[-81.24553,28.45134],[-81.16964,28.45174],[-81.12256,28.45141],[-81.09507,28.45167],[-81.0947,28.42801],[-81.09494,28.42058],[-81.09462,28.34822],[-81.16976,28.34854],[-81.21116,28.34824],[-81.21161,28.36533],[-81.21971,28.36714],[-81.22387,28.3671],[-81.22383,28.36999],[-81.22471,28.37104],[-81.22558,28.37127],[-81.226,28.37376],[-81.22615,28.37345],[-81.22678,28.37347],[-81.22626,28.37352],[-81.22617,28.3738],[-81.22591,28.37389],[-81.2261,28.37408],[-81.22581,28.37413],[-81.22607,28.37418],[-81.22615,28.3744],[-81.22609,28.37472],[-81.22576,28.3747],[-81.22609,28.37491],[-81.22613,28.37576],[-81.22604,28.37616],[-81.2256,28.37662],[-81.22576,28.37682],[-81.22548,28.37681],[-81.22557,28.37715],[-81.22535,28.37742],[-81.22566,28.37726],[-81.22572,28.37749],[-81.22526,28.37787],[-81.22455,28.37785],[-81.22545,28.37792],[-81.22542,28.37805],[-81.22455,28.3781],[-81.22521,28.37829],[-81.22514,28.37845],[-81.22471,28.37841],[-81.22457,28.37863],[-81.22459,28.37907],[-81.2249,28.37922],[-81.22443,28.37914],[-81.22428,28.37938],[-81.22492,28.37944],[-81.22375,28.37948],[-81.2249,28.37971],[-81.22484,28.37986],[-81.22396,28.37968],[-81.22373,28.37994],[-81.22379,28.38012],[-81.22482,28.38024],[-81.22366,28.38026],[-81.22347,28.38049],[-81.22474,28.38055],[-81.22387,28.38067],[-81.22477,28.3808],[-81.22359,28.38086],[-81.22371,28.38112],[-81.22468,28.38116],[-81.22375,28.3812],[-81.22346,28.38139],[-81.22417,28.38137],[-81.22357,28.38167],[-81.22419,28.38173],[-81.22366,28.38184],[-81.22374,28.38198],[-81.22425,28.38197],[-81.2242,28.38215],[-81.22379,28.38209],[-81.22363,28.38241],[-81.22384,28.38274],[-81.22366,28.38312],[-81.22432,28.38317],[-81.22375,28.38327],[-81.22395,28.38339],[-81.22385,28.38416],[-81.22494,28.38398],[-81.22386,28.38428],[-81.22362,28.38545],[-81.22375,28.38545],[-81.22375,28.39271],[-81.22785,28.39272],[-81.22786,28.39474],[-81.2285,28.39668],[-81.22958,28.39806],[-81.23126,28.39971],[-81.23224,28.39996],[-81.23729,28.39991],[-81.23727,28.40432],[-81.23371,28.4064],[-81.23116,28.40867],[-81.22906,28.41153],[-81.22778,28.41457],[-81.24294,28.41459],[-81.24312,28.41681],[-81.2438,28.4184],[-81.24394,28.42828],[-81.24748,28.42771],[-81.24728,28.42677],[-81.25047,28.42625],[-81.25063,28.42664],[-81.25125,28.42702],[-81.25116,28.42766],[-81.25183,28.42797],[-81.25189,28.42821],[-81.25102,28.42853],[-81.25014,28.42926],[-81.24969,28.42989],[-81.24987,28.43017],[-81.25167,28.42967],[-81.25298,28.42959],[-81.25301,28.4291],[-81.25238,28.42873],[-81.25248,28.42843],[-81.25318,28.42867],[-81.25372,28.42845],[-81.25487,28.42869],[-81.2557,28.42842],[-81.25673,28.43027],[-81.25698,28.43286],[-81.28851,28.43301],[-81.28856,28.44119],[-81.28763,28.44464],[-81.28666,28.44932],[-81.30111,28.45145],[-81.30916,28.45146],[-81.30996,28.4548],[-81.31018,28.45678],[-81.31003,28.45879],[-81.3101,28.48062],[-81.29097,28.48068]]]}},{"type":"Feature","properties":{"SCHOOL":"JONES","TYPE":"HS","ADDR":"801 S Rio Grande Ave, Orlando 32805","WEB":"https://joneshs.ocps.net","PHONE":"407.835.2300","SLNG":-81.3992,"SLAT":28.53295},"geometry":{"type":"Polygon","coordinates":[[[-81.43058,28.56705],[-81.41494,28.5672],[-81.41487,28.56604],[-81.41562,28.56323],[-81.41565,28.5622],[-81.41545,28.56109],[-81.41396,28.55654],[-81.41384,28.55281],[-81.38238,28.55309],[-81.38263,28.5502],[-81.38221,28.53896],[-81.38191,28.53856],[-81.38214,28.53756],[-81.38309,28.53533],[-81.38569,28.53133],[-81.38614,28.53004],[-81.38628,28.52733],[-81.38621,28.52032],[-81.38664,28.51823],[-81.38658,28.51708],[-81.38777,28.5159],[-81.38859,28.51574],[-81.3939,28.51192],[-81.39696,28.5101],[-81.39688,28.50269],[-81.39704,28.50269],[-81.39704,28.50207],[-81.39767,28.50206],[-81.39767,28.50224],[-81.40097,28.50219],[-81.40097,28.50265],[-81.40529,28.50251],[-81.4053,28.50351],[-81.40724,28.50348],[-81.40814,28.50439],[-81.40935,28.50438],[-81.40935,28.50529],[-81.41142,28.50527],[-81.41142,28.50436],[-81.41349,28.50434],[-81.41346,28.50159],[-81.4145,28.50158],[-81.41446,28.49793],[-81.41745,28.4979],[-81.41743,28.49426],[-81.42593,28.49418],[-81.4268,28.49399],[-81.42663,28.49776],[-81.42552,28.49777],[-81.42553,28.49972],[-81.42674,28.49971],[-81.4252,28.50148],[-81.42995,28.50143],[-81.42996,28.50224],[-81.42626,28.50717],[-81.42595,28.50794],[-81.42609,28.52656],[-81.42996,28.52653],[-81.42996,28.52683],[-81.43015,28.52683],[-81.43014,28.52653],[-81.43033,28.52653],[-81.43033,28.52683],[-81.4305,28.52684],[-81.4305,28.52653],[-81.43205,28.52652],[-81.43206,28.52689],[-81.43245,28.52698],[-81.43843,28.52698],[-81.43843,28.52786],[-81.45706,28.52769],[-81.45823,28.52798],[-81.45927,28.52799],[-81.45924,28.53207],[-81.45818,28.53639],[-81.45832,28.54505],[-81.45674,28.55032],[-81.45656,28.55237],[-81.44277,28.55251],[-81.44288,28.55974],[-81.4305,28.55982],[-81.43058,28.56705]]]}},{"type":"Feature","properties":{"SCHOOL":"WEST ORANGE","TYPE":"HS","ADDR":"1625 S Beulah Rd, Winter Garden 34787","WEB":"https://westorangehs.ocps.net","PHONE":"407.905.2400","SLNG":-81.56718,"SLAT":28.54221},"geometry":{"type":"Polygon","coordinates":[[[-81.58355,28.57978],[-81.58308,28.57977],[-81.57998,28.57863],[-81.57967,28.57807],[-81.58085,28.57756],[-81.58063,28.57708],[-81.57948,28.57506],[-81.57725,28.57299],[-81.57424,28.57318],[-81.56698,28.57319],[-81.56696,28.57036],[-81.56274,28.57181],[-81.55691,28.57194],[-81.55684,28.56962],[-81.55706,28.56799],[-81.55922,28.5621],[-81.55974,28.55926],[-81.55966,28.55624],[-81.5587,28.55143],[-81.5421,28.55163],[-81.54208,28.54589],[-81.53937,28.54471],[-81.53805,28.54384],[-81.53586,28.54188],[-81.53419,28.53967],[-81.53491,28.53953],[-81.53461,28.5391],[-81.53467,28.53827],[-81.53368,28.53753],[-81.53351,28.53095],[-81.5335,28.52987],[-81.54178,28.52983],[-81.54152,28.51804],[-81.54573,28.51797],[-81.54575,28.51887],[-81.54903,28.51882],[-81.54904,28.51924],[-81.55134,28.5192],[-81.55133,28.51879],[-81.55411,28.51875],[-81.55411,28.51847],[-81.55736,28.51846],[-81.5575,28.51751],[-81.55739,28.51644],[-81.56099,28.51661],[-81.56211,28.51586],[-81.56472,28.51511],[-81.56474,28.51864],[-81.57063,28.51865],[-81.57056,28.50435],[-81.57087,28.50408],[-81.57357,28.50405],[-81.57428,28.50379],[-81.57466,28.503],[-81.57464,28.5005],[-81.58705,28.50026],[-81.58706,28.50583],[-81.59835,28.50572],[-81.60185,28.50387],[-81.60219,28.50404],[-81.60494,28.50736],[-81.61008,28.50739],[-81.62952,28.48387],[-81.63086,28.48166],[-81.64061,28.48162],[-81.64057,28.47433],[-81.65756,28.47418],[-81.65731,28.55706],[-81.65565,28.55734],[-81.65313,28.5572],[-81.64989,28.55895],[-81.64933,28.55965],[-81.64864,28.56169],[-81.64833,28.56415],[-81.6479,28.56471],[-81.64728,28.56452],[-81.64654,28.56356],[-81.64639,28.56232],[-81.6454,28.56196],[-81.64517,28.56153],[-81.645,28.56153],[-81.64494,28.56176],[-81.64396,28.56164],[-81.64372,28.56113],[-81.6433,28.5611],[-81.64291,28.56079],[-81.64265,28.56092],[-81.6413,28.56084],[-81.64076,28.56102],[-81.64038,28.56188],[-81.63906,28.56248],[-81.63671,28.56246],[-81.63544,28.56217],[-81.63434,28.56167],[-81.63162,28.56244],[-81.62809,28.56265],[-81.62609,28.5624],[-81.62523,28.56271],[-81.62462,28.56344],[-81.62409,28.56298],[-81.62345,28.56318],[-81.62274,28.56371],[-81.6215,28.56409],[-81.61825,28.56398],[-81.61652,28.56456],[-81.6155,28.5646],[-81.61315,28.56517],[-81.61267,28.56556],[-81.61158,28.56573],[-81.60927,28.56695],[-81.60827,28.56822],[-81.60677,28.56835],[-81.60535,28.56967],[-81.60461,28.56986],[-81.60278,28.5698],[-81.60236,28.57011],[-81.60183,28.56991],[-81.60147,28.57018],[-81.60136,28.57003],[-81.60049,28.57062],[-81.6,28.5712],[-81.59908,28.57154],[-81.59738,28.57316],[-81.59658,28.57306],[-81.59559,28.57336],[-81.59252,28.57377],[-81.59145,28.57342],[-81.59053,28.57374],[-81.59052,28.57413],[-81.58997,28.57392],[-81.58953,28.574],[-81.58912,28.5745],[-81.58906,28.57529],[-81.58922,28.57544],[-81.58866,28.57624],[-81.58825,28.57639],[-81.58784,28.57688],[-81.58617,28.57772],[-81.58535,28.57786],[-81.58562,28.57805],[-81.58626,28.57808],[-81.5851,28.57818],[-81.58409,28.57862],[-81.58398,28.57912],[-81.58418,28.57917],[-81.58424,28.57944],[-81.58355,28.57978]]]}},{"type":"Feature","properties":{"SCHOOL":"WINDERMERE","TYPE":"HS","ADDR":"5523 Winter Garden Vineland Rd, Windermere 34786","WEB":"https://windermerehs.ocps.net","PHONE":"407.347.0980","SLNG":-81.58064,"SLAT":28.48269},"geometry":{"type":"Polygon","coordinates":[[[-81.54172,28.39067],[-81.54324,28.39103],[-81.54797,28.39405],[-81.54923,28.39449],[-81.5505,28.39468],[-81.55247,28.39448],[-81.55791,28.39278],[-81.56078,28.39115],[-81.56301,28.39115],[-81.56432,28.39167],[-81.56771,28.39442],[-81.56847,28.39461],[-81.57112,28.39469],[-81.57175,28.3952],[-81.57365,28.39888],[-81.57667,28.4064],[-81.57661,28.40777],[-81.57551,28.41109],[-81.57688,28.41551],[-81.57667,28.41814],[-81.57581,28.4201],[-81.57583,28.42066],[-81.57852,28.42366],[-81.57918,28.42385],[-81.57911,28.42828],[-81.57868,28.42878],[-81.57665,28.42986],[-81.582,28.43476],[-81.59456,28.44259],[-81.59489,28.4433],[-81.59495,28.44893],[-81.59514,28.4492],[-81.59592,28.44947],[-81.59612,28.44981],[-81.59607,28.45534],[-81.59626,28.45773],[-81.59519,28.46148],[-81.59242,28.46404],[-81.58608,28.46692],[-81.58508,28.46756],[-81.59094,28.46753],[-81.59095,28.46935],[-81.59714,28.46931],[-81.59719,28.47596],[-81.59934,28.47595],[-81.59985,28.47663],[-81.60208,28.4723],[-81.61141,28.47776],[-81.61373,28.47776],[-81.61373,28.47731],[-81.61734,28.47727],[-81.61733,28.47681],[-81.62095,28.47678],[-81.62095,28.47632],[-81.62354,28.47629],[-81.62355,28.47811],[-81.62407,28.47811],[-81.6241,28.48174],[-81.63084,28.4817],[-81.62952,28.48387],[-81.61008,28.50739],[-81.60494,28.50736],[-81.60219,28.50404],[-81.60185,28.50387],[-81.59835,28.50572],[-81.58706,28.50583],[-81.58705,28.50026],[-81.57464,28.5005],[-81.57466,28.503],[-81.57428,28.50379],[-81.57357,28.50405],[-81.57087,28.50408],[-81.57056,28.50436],[-81.57063,28.51865],[-81.56474,28.51864],[-81.56472,28.51511],[-81.56211,28.51586],[-81.56099,28.51661],[-81.5574,28.51644],[-81.5575,28.51751],[-81.55736,28.51846],[-81.55411,28.51847],[-81.55411,28.51875],[-81.55133,28.51879],[-81.55134,28.5192],[-81.54904,28.51924],[-81.54903,28.51882],[-81.54575,28.51887],[-81.54573,28.51797],[-81.54152,28.51804],[-81.54286,28.51148],[-81.55196,28.51157],[-81.55194,28.50619],[-81.55821,28.50619],[-81.55821,28.5047],[-81.55988,28.50417],[-81.56099,28.50411],[-81.55907,28.49929],[-81.55935,28.49958],[-81.55919,28.49925],[-81.55948,28.49934],[-81.56027,28.49911],[-81.56175,28.49923],[-81.56207,28.49891],[-81.56275,28.49885],[-81.56384,28.49836],[-81.56661,28.49686],[-81.56662,28.49732],[-81.56795,28.49804],[-81.56884,28.49752],[-81.56964,28.49756],[-81.56972,28.49722],[-81.56962,28.49688],[-81.5686,28.49663],[-81.56772,28.49521],[-81.5666,28.49462],[-81.56609,28.49388],[-81.56584,28.49301],[-81.56557,28.49294],[-81.566,28.49234],[-81.56459,28.49249],[-81.5643,28.49233],[-81.56315,28.49238],[-81.56382,28.49134],[-81.56435,28.49098],[-81.56472,28.48965],[-81.56608,28.4897],[-81.56708,28.48905],[-81.56749,28.4881],[-81.56736,28.48649],[-81.56709,28.48611],[-81.56584,28.48528],[-81.5654,28.48525],[-81.5648,28.48556],[-81.56352,28.48467],[-81.56212,28.48327],[-81.56121,28.48149],[-81.56157,28.47974],[-81.56143,28.47904],[-81.5611,28.47861],[-81.55794,28.47862],[-81.55795,28.47728],[-81.55753,28.47708],[-81.55746,28.47653],[-81.55725,28.4766],[-81.55772,28.47632],[-81.55795,28.47588],[-81.55796,28.47141],[-81.55746,28.47083],[-81.55471,28.46956],[-81.55374,28.46953],[-81.55278,28.47026],[-81.55241,28.47128],[-81.55282,28.47207],[-81.55383,28.47262],[-81.55377,28.47282],[-81.55086,28.4741],[-81.55006,28.47423],[-81.55015,28.47394],[-81.54997,28.47373],[-81.54914,28.47384],[-81.54843,28.47457],[-81.54806,28.47465],[-81.54832,28.47526],[-81.54899,28.47527],[-81.54774,28.47661],[-81.54639,28.47709],[-81.54592,28.4776],[-81.54497,28.47798],[-81.54395,28.47869],[-81.54399,28.47897],[-81.54372,28.47897],[-81.54313,28.4782],[-81.54281,28.47852],[-81.54154,28.47891],[-81.53929,28.47679],[-81.53866,28.47465],[-81.53529,28.47419],[-81.53439,28.47351],[-81.5344,28.47328],[-81.5278,28.4718],[-81.52769,28.46975],[-81.52717,28.46889],[-81.52631,28.46825],[-81.52749,28.46613],[-81.52741,28.4646],[-81.52908,28.46162],[-81.52799,28.46153],[-81.52757,28.46111],[-81.52756,28.46048],[-81.52686,28.4593],[-81.52639,28.45888],[-81.52539,28.45556],[-81.5255,28.45508],[-81.52666,28.4546],[-81.52856,28.45453],[-81.53108,28.45378],[-81.5315,28.45377],[-81.53252,28.45419],[-81.5333,28.45411],[-81.53567,28.4499],[-81.53428,28.44841],[-81.53316,28.44768],[-81.53284,28.4472],[-81.5329,28.44659],[-81.53174,28.44563],[-81.53136,28.44482],[-81.53132,28.44404],[-81.5309,28.44327],[-81.53113,28.44223],[-81.53092,28.44176],[-81.53113,28.44154],[-81.53105,28.4412],[-81.52887,28.44273],[-81.52592,28.43953],[-81.52669,28.43898],[-81.5251,28.43866],[-81.52347,28.43877],[-81.5224,28.43781],[-81.52301,28.43747],[-81.52572,28.43761],[-81.52624,28.43535],[-81.52451,28.43536],[-81.52455,28.42062],[-81.52865,28.42061],[-81.52865,28.42243],[-81.53173,28.42243],[-81.53172,28.42061],[-81.53257,28.42061],[-81.53251,28.4169],[-81.53069,28.4169],[-81.53069,28.41531],[-81.52991,28.41511],[-81.52864,28.41511],[-81.52863,28.41323],[-81.53068,28.41323],[-81.53068,28.41143],[-81.53279,28.41143],[-81.53278,28.40087],[-81.53236,28.39983],[-81.53146,28.39901],[-81.53027,28.3986],[-81.52862,28.39856],[-81.52868,28.39472],[-81.52907,28.39356],[-81.52984,28.39244],[-81.53092,28.39156],[-81.53228,28.39094],[-81.53391,28.39069],[-81.54172,28.39067]]]}},{"type":"Feature","properties":{"SCHOOL":"FREEDOM","TYPE":"HS","ADDR":"2500 Taft Vineland Rd, Orlando 32837","WEB":"https://freedomhs.ocps.net","PHONE":"407.816.5600","SLNG":-81.41286,"SLAT":28.41639},"geometry":{"type":"Polygon","coordinates":[[[-81.40027,28.47611],[-81.40026,28.47579],[-81.39981,28.47577],[-81.39979,28.47255],[-81.40081,28.47254],[-81.40079,28.46481],[-81.40162,28.4632],[-81.40239,28.46248],[-81.40164,28.462],[-81.39969,28.46166],[-81.40118,28.45639],[-81.40899,28.45629],[-81.40896,28.45046],[-81.42102,28.45041],[-81.41074,28.4354],[-81.40804,28.43261],[-81.40469,28.43016],[-81.40444,28.35377],[-81.40407,28.34795],[-81.45776,28.34786],[-81.45775,28.34731],[-81.46244,28.34728],[-81.46243,28.35487],[-81.4578,28.35591],[-81.45793,28.36973],[-81.45709,28.37023],[-81.4569,28.37066],[-81.45598,28.37106],[-81.45507,28.37135],[-81.45422,28.37136],[-81.45341,28.37168],[-81.45272,28.3716],[-81.45274,28.37365],[-81.43749,28.37355],[-81.43742,28.37505],[-81.43598,28.37818],[-81.43428,28.37914],[-81.43352,28.3812],[-81.43315,28.38468],[-81.43207,28.38653],[-81.43322,28.39106],[-81.43322,28.39201],[-81.42507,28.39205],[-81.42511,28.40752],[-81.42475,28.40929],[-81.42319,28.41284],[-81.4228,28.41482],[-81.42291,28.43154],[-81.42351,28.43404],[-81.42685,28.43992],[-81.42747,28.44175],[-81.42769,28.45296],[-81.42746,28.45448],[-81.42705,28.45559],[-81.42567,28.45762],[-81.41968,28.46349],[-81.41858,28.46481],[-81.41792,28.4662],[-81.41749,28.46777],[-81.41747,28.47256],[-81.41632,28.47253],[-81.41612,28.47362],[-81.41326,28.47364],[-81.41327,28.47422],[-81.40921,28.47425],[-81.40921,28.47256],[-81.40901,28.47257],[-81.40901,28.47303],[-81.4086,28.47304],[-81.40861,28.47326],[-81.40839,28.47326],[-81.40839,28.47257],[-81.40807,28.47258],[-81.40808,28.47426],[-81.40704,28.47428],[-81.40706,28.47605],[-81.40505,28.47608],[-81.40504,28.47519],[-81.40085,28.47525],[-81.40087,28.47611],[-81.40027,28.47611]]]}},{"type":"Feature","properties":{"SCHOOL":"LAKE NONA","TYPE":"HS","ADDR":"12500 Narcoossee Rd, Orlando 32827","WEB":"https://lakenonahs.ocps.net","PHONE":"407.956.8300","SLNG":-81.24726,"SLAT":28.38084},"geometry":{"type":"Polygon","coordinates":[[[-81.3019,28.45149],[-81.28666,28.44932],[-81.28763,28.44464],[-81.28856,28.44119],[-81.28851,28.43301],[-81.25698,28.43286],[-81.25673,28.43027],[-81.2557,28.42842],[-81.25487,28.42869],[-81.25372,28.42845],[-81.25318,28.42867],[-81.25248,28.42843],[-81.25238,28.42873],[-81.25301,28.4291],[-81.25298,28.42959],[-81.25167,28.42967],[-81.24987,28.43017],[-81.24969,28.42989],[-81.25014,28.42926],[-81.25102,28.42853],[-81.25189,28.42821],[-81.25183,28.42797],[-81.25116,28.42766],[-81.25125,28.42702],[-81.25063,28.42664],[-81.25047,28.42625],[-81.24728,28.42677],[-81.24748,28.42771],[-81.24394,28.42828],[-81.2438,28.4184],[-81.24312,28.41681],[-81.24294,28.41459],[-81.22778,28.41457],[-81.22906,28.41153],[-81.23116,28.40867],[-81.23371,28.4064],[-81.23727,28.40432],[-81.23729,28.39991],[-81.23224,28.39996],[-81.23126,28.39971],[-81.22958,28.39806],[-81.2285,28.39668],[-81.22786,28.39474],[-81.22785,28.39272],[-81.22375,28.39271],[-81.22375,28.38545],[-81.22362,28.38545],[-81.22386,28.38428],[-81.22494,28.38398],[-81.22385,28.38416],[-81.22395,28.38339],[-81.22375,28.38327],[-81.22432,28.38317],[-81.22366,28.38312],[-81.22384,28.38274],[-81.22363,28.38241],[-81.22379,28.38209],[-81.2242,28.38215],[-81.22425,28.38197],[-81.22374,28.38198],[-81.22366,28.38184],[-81.22419,28.38173],[-81.22357,28.38167],[-81.22417,28.38137],[-81.22346,28.38139],[-81.22375,28.3812],[-81.22468,28.38116],[-81.22371,28.38112],[-81.22359,28.38086],[-81.22477,28.3808],[-81.22387,28.38067],[-81.22474,28.38055],[-81.22347,28.38049],[-81.22366,28.38026],[-81.22482,28.38024],[-81.22379,28.38012],[-81.22373,28.37994],[-81.22396,28.37968],[-81.22484,28.37986],[-81.2249,28.37971],[-81.22375,28.37948],[-81.22492,28.37944],[-81.22428,28.37938],[-81.22443,28.37914],[-81.2249,28.37922],[-81.22459,28.37907],[-81.22457,28.37863],[-81.22471,28.37841],[-81.22514,28.37845],[-81.22521,28.37829],[-81.22455,28.3781],[-81.22542,28.37805],[-81.22545,28.37792],[-81.22455,28.37785],[-81.22526,28.37787],[-81.22572,28.37749],[-81.22566,28.37726],[-81.22535,28.37742],[-81.22557,28.37715],[-81.22548,28.37681],[-81.22576,28.37682],[-81.2256,28.37662],[-81.22604,28.37616],[-81.22613,28.37576],[-81.22609,28.37491],[-81.22576,28.3747],[-81.22609,28.37472],[-81.22615,28.3744],[-81.22607,28.37418],[-81.22581,28.37413],[-81.2261,28.37408],[-81.22591,28.37389],[-81.22617,28.3738],[-81.22626,28.37352],[-81.22678,28.37347],[-81.22615,28.37345],[-81.226,28.37376],[-81.22558,28.37127],[-81.22471,28.37104],[-81.22383,28.36999],[-81.22387,28.3671],[-81.21971,28.36714],[-81.21161,28.36533],[-81.21116,28.34824],[-81.32186,28.34803],[-81.32192,28.35359],[-81.32601,28.35358],[-81.32598,28.35948],[-81.32396,28.35947],[-81.32398,28.3631],[-81.32507,28.3631],[-81.32551,28.36617],[-81.32545,28.36724],[-81.32266,28.36713],[-81.3193,28.36737],[-81.30953,28.3693],[-81.30931,28.3788],[-81.30877,28.38567],[-81.30902,28.3872],[-81.30997,28.38966],[-81.31016,28.39068],[-81.31013,28.39657],[-81.31004,28.39705],[-81.30912,28.3971],[-81.30759,28.40199],[-81.30747,28.40628],[-81.30731,28.40695],[-81.30664,28.40785],[-81.30493,28.40883],[-81.30415,28.40989],[-81.30398,28.41059],[-81.30402,28.41402],[-81.30421,28.4152],[-81.30494,28.41744],[-81.30653,28.42073],[-81.30715,28.42524],[-81.30786,28.426],[-81.31013,28.42679],[-81.31116,28.42905],[-81.31131,28.43287],[-81.31035,28.43634],[-81.31078,28.43768],[-81.31068,28.43821],[-81.3116,28.43991],[-81.31173,28.44087],[-81.3115,28.44172],[-81.30946,28.44572],[-81.30892,28.44718],[-81.30874,28.44944],[-81.30916,28.45146],[-81.3019,28.45149]]]}}]}